"","e_","site_","sigle","name","iscore","issect","isssamp","descriptor","hasanlam","entloc","localveg","coll_","sampdate","depthatloc","icethickcm","sampdevice","corediamcm","c14depthadj","notes","site_","sitename","sitecode","siteexists","poldiv1","poldiv2","poldiv3","latdeg","latmin","latsec","latns","latdd","latdms","londeg","lonmin","lonsec","lonew","londd","londms","elevation","areaofsite"
"1",10,10,"CARNINO","core I","Y","N","Y","PMIR","N",NA,NA,88,"0000-00-00",NA,NA,"Unspecified device",NA,NA,NA,10,"Selle di Carnino","ITA-08000-SELL",NA,"ITA","08","000",44,9,0,"N",44.15,"44.09.00N",7,41,40,"E",7.694444,"  7.41.40E",1905,5
"2",19,19,"EDESSA",NA,"Y","N","Y","PMSH","N","2 km SE of Nision",NA,103,"1965-07-00",NA,NA,"Dachnowski corer",3.6,NA,NA,19,"Edessa","GRC-40000-EDES",NA,"GRC","40","000",40,49,5,"N",40.818056,"40.49.05N",21,57,9,"E",21.9525," 21.57.09E",350,2
"3",55,54,"AIG_HOU",NA,"Y","N","Y","UNKN","N",NA,NA,88,"0000-00-00",NA,NA,"Unspecified device",NA,NA,NA,54,"Aiguillettes des Ouches","FRA-41000-AIGU",NA,"FRA","41","000",45,55,10,"N",45.919444,"45.55.10N",6,50,25,"E",6.840278,"  6.50.25E",1492,NA
"4",56,55,"ALGENDAR",NA,"Y","N","Y","UNKN","N","Lagoons",NA,453,"0000-00-00",2400,NA,"Industrial corer",NA,NA,NA,55,"Algendar","ESP-04000-ALGE",NA,"ESP","04","000",39,56,26,"N",39.940556,"39.56.26N",3,57,31,"E",3.958611,"  3.57.31E",21,NA
"5",57,56,"ALLOS",NA,"Y","N","Y","PMIR","N","Eastern part of the meadows",NA,88,"1972-07-00",0,NA,"Hiller corer",4,NA,NA,56,"Plan du Laus","FRA-04000-PLAN",NA,"FRA","04","000",44,14,30,"N",44.241667,"44.14.30N",6,42,8,"E",6.702222,"  6.42.08E",2121,0.5
"6",68,65,"ANTAS",NA,"Y","N","Y","MCOA","N","NE of Almeria, 1km from Puerto Rey beach",NA,332,"1994-00-00",0,NA,"Industrial corer",10,NA,NA,65,"Antas","ESP-01000-ANTA",NA,"ESP","01","000",37,12,30,"N",37.208333,"37.12.30N",1,49,25,"W",-1.823611,"  1.49.25W",0,NA
"7",73,69,"ARC","core 1","Y","N","Y","UNKN","N",NA,NA,189,"0000-00-00",NA,NA,"Unspecified device",NA,NA,NA,69,"Plan Dechaud","FRA-80000-PLAN",NA,"FRA","80","000",45,34,2,"N",45.567222,"45.34.02N",6,49,51,"E",6.830833,"  6.49.51E",2175,0.4
"8",82,78,"AVLAN",NA,"Y","N","Y","UNKN","N",NA,NA,103,"0000-00-00",NA,NA,"Unspecified device",NA,NA,NA,78,"Avlan Gölü","TUR-08000-AVLA",NA,"TUR","08","000",36,35,0,"N",36.583333,"36.35.00N",29,57,0,"E",29.95," 29.57.00E",1026,NA
"9",113,99,"BESBOG","core 2","Y","N","Y","UNKN","N",NA,NA,172,"1987-00-00",155,NA,"Industrial corer",10,NA,NA,99,"Besbog","BGR-01000-BESB",NA,"BGR","01","000",41,45,0,"N",41.75,"41.45.00N",23,40,0,"E",23.666667," 23.40.00E",2240,NA
"10",114,100,"BEYSEHIR",NA,"Y","N","Y","PMSH","N","SW Turkey, 1.5km E of village Yesildag",NA,103,"1970-06-00",0,NA,"Dachnowski",3.6,NA,NA,100,"Beysehir Gölü I","TUR-53000-BEYS",NA,"TUR","53","000",37,32,30,"N",37.541667,"37.32.30N",31,30,0,"E",31.5," 31.30.00E",1120,20
"11",117,103,"BIOT",NA,"Y","N","Y","UNKN","N","1.5 km from the coast",NA,200,"1995-00-00",NA,NA,"Hammer",NA,NA,NA,103,"Biot","FRA-05000-BIOT",NA,"FRA","05","000",43,48,0,"N",43.8,"43.48.00N",7,6,0,"E",7.1,"  7.06.00E",863,NA
"12",133,117,"BOHNIGSE","core 2","Y","N","Y","UNKN","N",NA,NA,35,"0000-00-00",NA,NA,"Unspecified device",NA,NA,NA,117,"Boehnigsee Goldmoos","CHE-23000-BOEH",NA,"CHE","23","000",46,15,22,"N",46.256111,"46.15.22N",7,50,39,"E",7.844166,"  7.50.39",2100,NA
"13",154,129,"CAIRN2","core 2","Y","N","Y","UNKN","N",NA,NA,189,"0000-00-00",NA,NA,"Unspecified device",NA,NA,NA,129,"Cairn","FRA-80000-CAIR",NA,"FRA","80","000",45,19,53,"N",45.331389,"45.19.53N",6,33,24,"E",6.556667,"  6.33.24E",2315,0.5
"14",174,146,"CLAC2","core 3","Y","N","Y","UNKN","N",NA,NA,189,"0000-00-00",NA,NA,"Unspecified device",NA,NA,NA,146,"Lac du Clou","FRA-80000-LACD",NA,"FRA","80","000",45,34,2,"N",45.567222,"45.34.02N",6,56,2,"E",6.933889,"  6.56.02E",2375,1.6
"15",175,147,"CLAP69","core 69","Y","N","Y","PMIR","N",NA,"Carex peat",88,"1968-00-00",NA,NA,"Hiller corer",NA,NA,NA,147,"Clapeyret","FRA-05000-CLAP","Y1992","FRA","05","000",44,8,50,"N",44.147222,"44.08.50N",7,14,20,"E",7.238889,"  7.14.20E",2260,1.5
"16",177,149,"CLOU1","core 4","Y","N","Y","UNKN","N",NA,NA,189,"0000-00-00",NA,NA,"Unspecified device",NA,NA,NA,149,"Plan du Clou","FRA-80000-PLAN",NA,"FRA","80","000",45,41,59,"N",45.699722,"45.41.59N",6,32,21,"E",6.539167,"  6.32.21E",1700,0.3
"17",179,151,"COLFIORI",NA,"Y","N","Y","PSWA","N","South of Colfiorito, close to road N77",NA,174,"1994-00-00",0,NA,"Russian corer",10,NA,NA,151,"Colfiorito","ITA-10000-COLF",NA,"ITA","10","000",43,1,30,"N",43.025,"43.01.30N",12,55,30,"E",12.925," 12.55.30E",752,NA
"18",183,154,"COUVERT","core 5","Y","N","Y","UNKN","N",NA,NA,189,"0000-00-00",NA,NA,"Unspecified device",NA,NA,NA,154,"Lac Couvert","FRA-80000-LACC",NA,"FRA","80","000",45,41,47,"N",45.696389,"45.41.47N",6,32,5,"E",6.534722,"  6.32.05E",1805,0.4
"19",184,155,"CPORTER",NA,"Y","N","Y","UNKN","N","Lagoons",NA,453,"1994-00-00",1360,NA,"Industrial corer",10,NA,NA,155,"Cala'n Porter","ESP-04000-CALA",NA,"ESP","04","000",39,52,14,"N",39.870556,"39.52.14N",4,7,53,"E",4.131389,"  4.07.53E",24,NA
"20",211,179,"ELMALI",NA,"Y","N","Y","UNKN","N",NA,NA,103,"0000-00-00",NA,NA,"Unspecified device",NA,NA,NA,179,"Elmali","TUR-20000-ELMA",NA,"TUR","20","000",37,40,20,"N",37.672222,"37.40.20N",29,53,30,"E",29.891667," 29.53.30E",1076,NA
"21",212,180,"EMBOU","boring II","Y","N","Y","ESTU","N","500 m at North of Méjean pond",NA,347,"1994-00-00",NA,NA,"Russian sampler",10,NA,NA,180,"Embouchac","FRA-46000-EMBO",NA,"FRA","46","000",43,33,59,"N",43.566389,"43.33.59N",3,55,0,"E",3.916667,"  3.55.00E",1,NA
"22",217,185,"ETANG",NA,"Y","N","Y","LACU","N",NA,NA,147,"1986-06-00",65,NA,"GES 10",5,NA,"Pollen nomenclature: Faegri and Iversen (1964). Samples 10-55 cm were not prepared for pollen analysis as the material had been disturbed.",185,"Le Grand Etang de Suze-La-Rousse","FRA-27000-LEGR",NA,"FRA","27","000",44,21,0,"N",44.35,"44.21.00N",5,14,0,"E",5.233333,"  5.14.00E",92,30
"23",244,205,"GALDANA",NA,"Y","N","Y","MCOA","N",NA,NA,453,"1994-00-00",NA,NA,"Unspecified device",NA,NA,NA,205,"Cala Galdana","ESP-04000-CALA",NA,"ESP","04","000",39,56,13,"N",39.936944,"39.56.13N",3,57,54,"E",3.965,"  3.57.54E",47,NA
"24",245,206,"GALINI",NA,"Y","N","Y","UNKN","N","Left bank of the Platys River",NA,103,"1971-00-00",0,NA,"Unspecified device",10,NA,"Van Zeist and Broekschoten are responsible for the sampleset collection. Sytze Bottema is responsible for the data.",206,"Aghia Galini","GRC-43000-AGHI",NA,"GRC","43","000",35,6,0,"N",35.1,"35.06.00N",24,41,0,"E",24.683333," 24.41.00E",0,NA
"25",249,210,"GHAB-1","I","Y","N","Y","UNKN","N",NA,NA,103,"0000-00-00",NA,NA,"Unspecified device",NA,NA,NA,210,"Ghab","SYR-10000-GHAB",NA,"SYR","10","000",35,41,0,"N",35.683333,"35.41.00N",36,18,0,"E",36.3," 36.18.00E",166,NA
"26",250,210,"GHAB-2","core 2","Y","N","Y","UNKN","N",NA,NA,103,"0000-00-00",NA,NA,"Unspecified device",NA,NA,NA,210,"Ghab","SYR-10000-GHAB",NA,"SYR","10","000",35,41,0,"N",35.683333,"35.41.00N",36,18,0,"E",36.3," 36.18.00E",166,NA
"27",251,210,"GHAB-3","core 3","Y","N","Y","UNKN","N",NA,NA,103,"0000-00-00",NA,NA,"Unspecified device",NA,NA,NA,210,"Ghab","SYR-10000-GHAB",NA,"SYR","10","000",35,41,0,"N",35.683333,"35.41.00N",36,18,0,"E",36.3," 36.18.00E",166,NA
"28",254,213,"GIANNITA",NA,"Y","N","Y","ESTU","N","Along road in Plain of Macedonia",NA,103,"1963-00-00",NA,NA,"Dachnowski",3.6,NA,"The diagram Giannitsa is prepared from the cores Giannitsa A (samples 40-64 in the diagram) and Giannitsa B (samples 1-39 in the diagram); Core Giannitsa A proved to be very poor in pollen from 140 - 190 cm.",213,"Giannitsa A","GRC-40000-GIAN",NA,"GRC","40","000",40,40,28,"N",40.674444,"40.40.28N",22,19,16,"E",22.321111," 22.19.16E",20,0.25
"29",255,214,"GIANNITB",NA,"Y","N","Y","ESTU","N","Along road in Plain of Macedonia",NA,103,"1965-06-00",NA,NA,"Dachnowski and Livingstone",3.6,NA,"From 50-1205 a Dagnowski (3.6-cm) was used; from 1200-1265 a Livingstone (2.8-cm) was used. The diagram Giannitsa is prepared from the cores Giannitsa A (samples 40-64 in the diagram) and Giannitsa B (samples 1-39 in the diagram); Core Giannitsa B showed no pollen from 55-310 cm; the marly clay below 1210 cm also proved to be sterile.",214,"Giannitsa B","GRC-40000-GIAN",NA,"GRC","40","000",40,40,0,"N",40.666667,"40.40.00N",22,19,0,"E",22.316667," 22.19.00E",20,0.25
"30",260,219,"GOLHISH",NA,"Y","N","Y","UNKN","N",NA,NA,103,"0000-00-00",NA,NA,"Unspecified device",NA,NA,NA,219,"Gölhisar Gölü","TUR-18000-GOLH",NA,"TUR","18","000",37,8,0,"N",37.133333,"37.08.00N",29,36,0,"E",29.6," 29.36.00E",951,NA
"31",263,222,"GRAMIGNE",NA,"Y","N","Y","UNKN","N",NA,NA,35,"1969-00-00",NA,NA,"Unspecified device",10,NA,"Cores taken for engineering purposes mainly but some were selected from continuous cores taken for geologic assays. Pollen nomenclature: Faegri and Iversen (1975).",222,"Venice","ITA-20000-VENI",NA,"ITA","20","000",45,30,0,"N",45.5,"45.30.00N",12,15,0,"E",12.25," 12.15.00E",22,NA
"32",267,226,"HALOS",NA,"Y","N","Y","UNKN","N","Pagasitic Gulf, 7 km NW of Sourpi",NA,103,"1979-00-00",NA,NA,"Unspecified device",NA,NA,NA,226,"Halos I","GRC-38000-HALO",NA,"GRC","38","000",39,10,0,"N",39.166667,"39.10.00N",22,50,0,"E",22.833333," 22.50.00E",0,NA
"33",324,273,"KASTORIA",NA,"Y","N","Y","PMSH","N","NE side of lake",NA,103,"1965-06-00",NA,NA,"Dachnowski",3.6,NA,NA,273,"Kastoria","GRC-25000-KAST",NA,"GRC","25","000",40,33,7,"N",40.551944,"40.33.07N",21,19,20,"E",21.322222," 21.19.20E",650,0.1
"34",284,240,"HTIMONER",NA,"Y","N","Y","MCOA","N","Marshlands",NA,453,"1994-00-00",900,NA,"Industrial corer",NA,NA,NA,240,"Hort Timoner","ESP-04000-HORT",NA,"ESP","04","000",39,52,30,"N",39.875,"39.52.30N",4,7,35,"E",4.126389,"  4.07.35E",40,NA
"35",286,242,"HULEH",NA,"Y","N","Y","UNKN","N",NA,NA,103,"0000-00-00",NA,NA,"Unspecified device",NA,NA,NA,242,"Huleh","ISR-04000-HULE",NA,"ISR","04","000",33,6,20,"N",33.105556,"33.06.20N",35,31,42,"E",35.528333," 35.31.42E",466,NA
"36",294,249,"IOAN249","core 249","Y","N","Y","UNKN","N","Southeast of Lake Pamvotis near Kastrits",NA,415,"0000-00-00",NA,NA,"Unspecified device",NA,NA,NA,249,"Ioannina","GRC-22000-IOAN",NA,"GRC","22","000",39,39,0,"N",39.65,"39.39.00N",20,55,0,"E",20.916667," 20.55.00E",470,22.8
"37",295,250,"IOAN-II",NA,"Y","N","Y","PMSH","N","North side of lake Ioannina",NA,103,"1965-06-00",NA,NA,"Dachnowski",3.6,NA,NA,250,"Ioannina II","GRC-22000-IOAN",NA,"GRC","22","000",39,41,31,"N",39.691944,"39.41.31N",20,50,23,"E",20.839722," 20.50.23E",470,5
"38",296,251,"IOANNINA",NA,"Y","N","Y","PMSH","N","2 km north of Kato Lapsisto",NA,103,"1965-08-00",NA,NA,"Dachnowski",3.6,NA,NA,251,"Ioannina I","GRC-22000-IOAN",NA,"GRC","22","000",39,45,45,"N",39.7625,"39.45.45N",20,43,50,"E",20.730556," 20.43.50E",470,2000
"39",314,263,"JEU1","core 6","Y","N","Y","UNKN","N",NA,NA,189,"0000-00-00",NA,NA,"Unspecified device",NA,NA,NA,263,"Plan du Jeu","FRA-80000-PLAN",NA,"FRA","80","000",45,36,26,"N",45.607222,"45.36.26N",6,31,56,"E",6.532222,"  6.31.56E",2010,0.2
"40",319,268,"KARAMIK",NA,"Y","N","Y","PMSH","N","SW Turkey, 2.5km SE of village Bulanik",NA,103,"1970-06-00",0,NA,"Dachnowski",3.6,NA,NA,268,"Kararmik Batakligi","TUR-03000-KARA",NA,"TUR","03","000",38,25,30,"N",38.425,"38.25.30N",30,48,0,"E",30.8," 30.48.00E",1000,4000
"41",328,277,"KHIM-1A",NA,"Y","N","Y","PMSH","N","1 km north of Lake Khimaditis",NA,103,"1965-07-00",NA,NA,"Dachnowski",3.6,NA,"Khimaditis Ia is published as the upper part of the diagram called Khimaditis I (together with Khimaditis Ib). In the P_sample table the original depths are given (the depthscale as published in the diagram is modified (see publication)).",277,"Khimaditis Ia","GRC-16000-KHIM",NA,"GRC","16","000",40,37,21,"N",40.6225,"40.37.21N",21,35,21,"E",21.589167," 21.35.21E",560,600
"42",329,278,"KHIMADIT",NA,"Y","N","Y","PMSH","N","900 m north of Lake Khimaditis",NA,103,"1965-07-00",NA,NA,"Dachnowski",3.6,NA,NA,278,"Khimaditis Ib","GRC-16000-KHIM",NA,"GRC","16","000",40,37,0,"N",40.616667,"40.37.00N",21,35,0,"E",21.583333," 21.35.00E",560,600
"43",330,279,"KHIMAIII",NA,"Y","N","Y","LNUN","N","NE part of lake",NA,103,"1965-06-00",100,NA,"Livingstone",3.6,NA,NA,279,"Khimaditis III","GRC-16000-KHIM",NA,"GRC","16","000",40,36,45,"N",40.6125,"40.36.45N",21,35,10,"E",21.586111," 21.35.10E",560,500
"44",331,280,"KHIMIV",NA,"Y","N","Y","PMSH","N","4.5 km NE of Lake Khimaditis",NA,103,"1963-09-00",NA,NA,"Dachnowski",3.6,NA,NA,280,"Khimaditis IV","GRC-16000-KHIM",NA,"GRC","16","000",40,38,30,"N",40.641667,"40.38.30N",21,37,11,"E",21.619722," 21.37.11E",560,600
"45",343,290,"KOYCEGIZ",NA,"Y","N","Y","LNAT","N","On peaty fringe of SE bank of the lake",NA,103,"1974-06-00",75,NA,"Dachnowski",3.6,NA,NA,290,"Köycegiz Gölü","TUR-59000-KOYC",NA,"TUR","59","000",36,52,30,"N",36.875,"36.52.30N",28,38,30,"E",28.641667," 28.38.30E",20,25
"46",352,299,"KUPENA",NA,"Y","N","Y","PSWA","N","East side of mire",NA,NA,"1986-00-00",NA,NA,"Russian peat corer",5,NA,NA,299,"Kupena","BGR-10000-KUPE",NA,"BGR","10","000",41,59,0,"N",41.983333,"41.59.00N",24,20,0,"E",24.333333," 24.20.00E",1356,8
"47",353,299,"KUPENA1",NA,"Y","N","Y","UNKN","N",NA,NA,172,"1984-09-00",NA,NA,"Dachnowski coring equipment",2.5,NA,NA,299,"Kupena","BGR-10000-KUPE",NA,"BGR","10","000",41,59,0,"N",41.983333,"41.59.00N",24,20,0,"E",24.333333," 24.20.00E",1356,8
"48",357,302,"LACOTE",NA,"Y","N","Y","RFLU","N",NA,NA,88,"1984-00-00",NA,NA,"Percussion corer",NA,NA,NA,302,"La Cote-Vercors","FRA-50000-LACO",NA,"FRA","50","000",45,6,0,"N",45.1,"45.06.00N",5,33,0,"E",5.55,"  5.33.00E",1116,NA
"49",361,306,"LAGUNA",NA,"Y","N","Y","LNAT","N","Just west of Sierra de Gibalto",NA,28,"1981-07-00",1050,NA,"Livingstone",3,NA,"Data are unpublished.",306,"Laguna Grande","ESP-01000-LAGU",NA,"ESP","01","000",37,6,30,"N",37.108333,"37.06.30N",4,19,0,"W",-4.316667,"  4.19.00W",800,4
"50",362,307,"LAIT3","core 3","Y","N","Y","UNKN","N",NA,NA,189,"0000-00-00",NA,NA,"Unspecified device",NA,NA,NA,307,"Lac du Lait","FRA-80000-LACD",NA,"FRA","80","000",45,18,55,"N",45.315278,"45.18.55N",6,49,0,"E",6.816667,"  6.49.00E",2190,0.26
"51",368,313,"LAUZE775","core 2","Y","N","Y","UNKN","N",NA,NA,88,"0000-00-00",NA,NA,"Unspecified device",NA,NA,NA,313,"Col des Lauzes","FRA-80000-COLD",NA,"FRA","80","000",44,46,3,"N",46.043833,"44.46.03N",6,32,13,"E",6.536667,"  6.32.13E",1832,NA
"52",378,320,"LEMPS81","core LI","Y","N","Y","UNKN","N",NA,NA,183,"1981-00-00",NA,NA,"Unspecified device",NA,NA,NA,320,"Le Grand Lemps","FRA-50000-LEGR",NA,"FRA","50","000",45,28,24,"N",45.473333,"45.28.24N",5,25,0,"E",5.416667,"  5.25.00E",680,80
"53",379,320,"LEMPS83","core LII","Y","N","Y","UNKN","N",NA,NA,183,"1983-00-00",NA,NA,"Unspecified device",NA,NA,NA,320,"Le Grand Lemps","FRA-50000-LEGR",NA,"FRA","50","000",45,28,24,"N",45.473333,"45.28.24N",5,25,0,"E",5.416667,"  5.25.00E",680,80
"54",380,320,"LEMPS85","core LIII","Y","N","Y","UNKN","N",NA,NA,183,"1985-00-00",NA,NA,"Unspecified device",NA,NA,NA,320,"Le Grand Lemps","FRA-50000-LEGR",NA,"FRA","50","000",45,28,24,"N",45.473333,"45.28.24N",5,25,0,"E",5.416667,"  5.25.00E",680,80
"55",381,320,"LEMPS86","core LIV","Y","N","Y","UNKN","N",NA,NA,183,"1986-00-00",NA,NA,"Unspecified device",NA,NA,NA,320,"Le Grand Lemps","FRA-50000-LEGR",NA,"FRA","50","000",45,28,24,"N",45.473333,"45.28.24N",5,25,0,"E",5.416667,"  5.25.00E",680,80
"56",383,322,"LIGNIN1","core 1","Y","N","Y","LACU","N","in the peat located in the border of the lake","peat",317,"0000-00-00",NA,NA,"russian sampler",NA,NA,NA,322,"Lignin Lake","FRA-04000-LIGN",NA,"FRA","04","000",44,6,15,"N",44.104167,"44.06.15N",6,42,31,"E",6.708611,"  6.42.31E",2273,2.4
"57",384,322,"LIGNIN2","core 2","Y","N","Y","LACU","N","in the lake","peat",317,"0000-00-00",NA,NA,"russian sampler",NA,NA,NA,322,"Lignin Lake","FRA-04000-LIGN",NA,"FRA","04","000",44,6,15,"N",44.104167,"44.06.15N",6,42,31,"E",6.708611,"  6.42.31E",2273,2.4
"58",393,331,"LLONG1","LLID26","Y","N","Y","PFEN","N","400 m NE the CAF refuge",NA,88,"1974-07-00",0,NA,"Smith corer",8,NA,NA,331,"Lac Long Inférieur","FRA-05000-LACL",NA,"FRA","05","000",44,3,28,"N",44.057778,"44.03.28N",7,27,0,"E",7.45,"  7.27.00E",2114,1.5
"59",427,357,"MALESH",NA,"Y","N","Y","UNKN","N","Central part of the peat bog",NA,411,"1982-07-00",205,NA,"Dachnowski hand sampler",2,NA,NA,357,"Maleshevska Mountains Peat Bog","BGR-01000-MALE",NA,"BGR","01","000",41,42,0,"N",41.7,"41.42.00N",23,2,0,"E",23.033333," 23.02.00E",1720,0.5
"60",434,363,"MARTIGAN",NA,"Y","N","Y","UNKN","N",NA,NA,78,"1988-09-00",NA,NA,"Mackereth (Mackereth 1958)",7.5,NA,"Faegri and Iversen (1964), Moore and Webb (1978), Beug (1960) and Andersen (1979).",363,"Lago di Martignano","ITA-07000-LAGO",NA,"ITA","07","000",42,7,0,"N",42.116667,"42.07.00N",12,20,0,"E",12.333333," 12.20.00E",204,1.5
"61",451,380,"MONALSUP","core 1","Y","N","Y","UNKN","N",NA,NA,189,"0000-00-00",NA,NA,"Unspecified device",NA,NA,NA,380,"Le Monal","FRA-80000-LEMO",NA,"FRA","80","000",45,33,25,"N",45.556944,"45.33.25N",6,55,43,"E",6.928611,"  6.55.43E",1975,0.5
"62",452,381,"MONT2","core 2","Y","N","Y","UNKN","N",NA,NA,189,"0000-00-00",NA,NA,"Unspecified device",NA,NA,NA,381,"Le Mont","FRA-80000-LEMO","N1994","FRA","80","000",45,33,5,"N",45.551389,"45.33.05N",6,32,56,"E",6.548889,"  6.32.56E",1995,0.4
"63",453,382,"MONT82","boring 1","Y","N","Y","PSWA","N",NA,NA,28,"1982-00-00",NA,NA,"Livingstone",5,NA,NA,382,"Lago Grande di Monticchio","ITA-02000-LAGO",NA,"ITA","02","000",40,56,40,"N",40.944444,"40.56.40N",15,36,0,"E",15.6," 15.36.00E",1326,NA
"64",454,382,"MONTLONG","long core","Y","N","Y","UNKN","N",NA,NA,28,"0000-00-00",NA,NA,"Unspecified device",NA,NA,NA,382,"Lago Grande di Monticchio","ITA-02000-LAGO",NA,"ITA","02","000",40,56,40,"N",40.944444,"40.56.40N",15,36,0,"E",15.6," 15.36.00E",1326,NA
"65",455,382,"MONTWAW1","Mackereth","Y","N","Y","UNKN","N",NA,NA,28,"0000-00-00",NA,NA,"Unspecified device",NA,NA,NA,382,"Lago Grande di Monticchio","ITA-02000-LAGO",NA,"ITA","02","000",40,56,40,"N",40.944444,"40.56.40N",15,36,0,"E",15.6," 15.36.00E",1326,NA
"66",460,387,"MOUSSOUS",NA,"Y","N","Y","UNKN","N",NA,NA,88,"0000-00-00",NA,NA,"Unspecified device",NA,NA,NA,387,"Moussous","FRA-06000-MOUS",NA,"FRA","06","000",44,38,10,"N",44.636111,"44.38.10N",3,59,28,"E",3.991111,"  3.59.28E",1300,NA
"67",461,388,"MOUTON2","core 2","Y","N","Y","UNKN","N",NA,NA,88,"0000-00-00",NA,NA,"Unspecified device",NA,NA,NA,388,"Lac Mouton","FRA-05000-LACM",NA,"FRA","05","000",44,3,28,"N",44.057778,"44.03.28N",7,26,41,"E",7.444722,"  7.26.41E",2175,NA
"68",469,396,"NAVA1","core 1","Y","N","Y","PMIR","N","Center of valley",NA,201,"1993-06-15",NA,NA,"Unspecified device",20,NA,NA,396,"Navarrés","ESP-11000-NAVA",NA,"ESP","11","000",39,6,0,"N",39.1,"39.06.00N",0,41,0,"W",-0.683333,"  0.41.00W",225,1.5
"69",470,396,"NAVA2","core 2","Y","N","Y","PMIR","N","Center of valley",NA,201,"1993-06-15",NA,NA,"Unspecified device",20,NA,NA,396,"Navarrés","ESP-11000-NAVA",NA,"ESP","11","000",39,6,0,"N",39.1,"39.06.00N",0,41,0,"W",-0.683333,"  0.41.00W",225,1.5
"70",471,396,"NAVARRE3",NA,"Y","N","Y","UNKN","N","Center of valley",NA,178,"1997-00-00",NA,NA,"Unspecified device",NA,NA,NA,396,"Navarrés","ESP-11000-NAVA",NA,"ESP","11","000",39,6,0,"N",39.1,"39.06.00N",0,41,0,"W",-0.683333,"  0.41.00W",225,1.5
"71",497,417,"OSPITALE",NA,"Y","N","Y","UNKN","N",NA,NA,442,"1994-00-00",NA,NA,"Russian corer",NA,NA,NA,417,"Ospitale","ITA-05000-OSPI",NA,"ITA","05","000",44,9,20,"N",44.155556,"44.09.20N",10,46,48,"E",10.78," 10.46.48E",1225,1
"72",500,420,"OVAGOLU",NA,"Y","N","Y","PMSH","N",NA,"Cladium mariscus",103,"1977-06-00",NA,NA,"coring expedition",NA,NA,"data include additonal pollen samples to those included in the published pollen diagram",420,"Ova Gölü","TUR-08000-OVAG",NA,"TUR","08","000",36,16,0,"N",36.266667,"36.16.00N",29,18,0,"E",29.3," 29.18.00E",20,NA
"73",504,424,"PADULE",NA,"Y","N","Y","UNKN","N",NA,NA,442,"0000-00-00",NA,NA,"Russian corer",NA,NA,NA,424,"Lago Padule","ITA-16000-LAGO",NA,"ITA","16","000",44,17,55,"N",44.298611,"44.17.55N",10,12,53,"E",10.214722," 10.12.53E",1187,3
"74",513,431,"PELL79C2",NA,"Y","N","Y","UNKN","N",NA,NA,88,"0000-00-00",NA,NA,"Unspecified device",NA,NA,NA,431,"Pelléautier","FRA-43000-PELL","N1978","FRA","43","000",44,31,20,"N",44.522222,"44.31.20N",6,11,0,"E",6.183333,"  6.11.00E",975,16
"75",514,432,"PERLE",NA,"Y","N","Y","UNKN","N",NA,NA,88,"0000-00-00",NA,NA,"Unspecified device",NA,NA,NA,432,"Lac de Perle","ITA-08000-LACD",NA,"ITA","08","000",44,8,30,"N",44.141667,"44.08.30N",7,36,0,"E",7.6,"  7.36.00E",2080,1
"76",525,442,"PLAN","core 2","Y","N","Y","UNKN","N",NA,NA,189,"0000-00-00",NA,NA,"Unspecified device",NA,NA,NA,442,"Plan du Lac","FRA-80000-PLAN",NA,"FRA","80","000",45,18,55,"N",45.315278,"45.18.55N",6,49,0,"E",6.816667,"  6.49.00E",2360,1.17
"77",527,444,"POPOVO",NA,"Y","N","Y","UNKN","N",NA,NA,172,"1986-00-00",250,NA,"Dachnowski hand-corer",2,NA,NA,444,"Popovo Ezero","BGR-01000-POPO",NA,"BGR","01","000",41,43,0,"N",41.716667,"41.43.00N",23,40,0,"E",23.666667," 23.40.00E",2185,NA
"78",538,455,"QUINTA01","core 3","Y","N","Y","UNKN","N",NA,NA,337,"0000-00-00",NA,NA,"Russian corer",5.5,NA,NA,455,"Quintanar de la Sierra","ESP-06000-QUIN",NA,"ESP","06","000",42,2,0,"N",42.033333,"42.02.00N",3,1,0,"W",-3.016667,"  3.01.00W",1470,NA
"79",539,455,"QUINTA02","core 4","Y","N","Y","UNKN","N",NA,NA,337,"0000-00-00",NA,NA,"Russian corer",5.5,NA,NA,455,"Quintanar de la Sierra","ESP-06000-QUIN",NA,"ESP","06","000",42,2,0,"N",42.033333,"42.02.00N",3,1,0,"W",-3.016667,"  3.01.00W",1470,NA
"80",544,460,"RATZ81","core RIII (D1)","Y","N","Y","LACU","N","border of the lake","Sphagnum",183,"1981-00-00",NA,NA,"Russian corer",NA,NA,NA,460,"Saint Julien de Ratz","FRA-50000-SAIN",NA,"FRA","50","000",45,20,54,"N",45.348333,"45.20.54N",5,39,19,"E",5.655278,"  5.39.19E",673,6
"81",545,460,"RATZ83","core RII","Y","N","Y","LACU","N",NA,"Sphagnum",183,"1983-00-00",NA,NA,"Russian corer",NA,NA,NA,460,"Saint Julien de Ratz","FRA-50000-SAIN",NA,"FRA","50","000",45,20,54,"N",45.348333,"45.20.54N",5,39,19,"E",5.655278,"  5.39.19E",673,6
"82",546,461,"RATZ85","core RI","Y","N","Y","LNDR","N",NA,NA,183,"1985-00-00",NA,NA,NA,NA,NA,NA,461,"Grand Ratz le Pellet","FRA-50000-GRAN",NA,"FRA","50","000",45,25,30,"N",45.425,"45.25.30N",5,36,30,"E",5.608333,"  5.36.30E",682,0.25
"83",556,470,"ROQUETAS",NA,"Y","N","Y","MCOA","N","East of Almeria",NA,453,"1993-00-00",NA,NA,"Industrial corer",10,NA,NA,470,"Roquetas de Mar","ESP-01000-ROQU",NA,"ESP","01","000",36,47,40,"N",36.794444,"36.47.40N",2,35,20,"W",-2.588889,"  2.35.20W",0,NA
"84",569,481,"SABBION1","core 3","Y","N","Y","UNKN","N",NA,NA,88,"0000-00-00",NA,NA,"Unspecified device",NA,NA,NA,481,"Sabbion","FRA-05000-SABB",NA,"FRA","05","000",44,7,48,"N",44.13,"44.07.48N",7,28,24,"E",7.473333,"  7.28.24E",2216,NA
"85",570,482,"SAISIES2","core 6","Y","N","Y","UNKN","N",NA,NA,189,"0000-00-00",NA,NA,"Unspecified device",NA,NA,NA,482,"Les Saisies","FRA-80000-LESS",NA,"FRA","80","000",45,44,14,"N",45.737222,"45.44.14N",6,28,37,"E",6.476944,"  6.28.37E",1570,0.5
"86",574,486,"SANRAFA",NA,"Y","N","Y","MCOA","N","East of Almeria",NA,332,"1994-00-00",NA,NA,"Industrial corer",10,NA,NA,486,"San Rafael","ESP-01000-SANR",NA,"ESP","01","000",36,46,25,"N",36.773611,"36.46.25N",2,36,5,"W",-2.601389,"  2.36.05W",0,NA
"87",587,497,"SIGURET","core 4","Y","N","Y","LACU","N",NA,NA,88,"0000-00-00",600,NA,"Unspecified device",NA,NA,NA,497,"Lac de Siguret","FRA-43000-LACD",NA,"FRA","43","000",44,36,49,"N",44.613611,"44.36.49N",6,33,25,"E",6.556944,"  6.33.25E",1066,10
"88",592,502,"SIXTE79","core SI","Y","N","Y","LNDR","N",NA,NA,183,"1979-00-00",NA,NA,"Russian corer",5,NA,NA,502,"Saint Sixte","FRA-50000-SAIN",NA,"FRA","50","000",45,25,33,"N",45.425833,"45.25.33N",5,37,43,"E",5.628611,"  5.37.43",720,2
"89",593,502,"SIXTE85","core II","Y","N","Y","LNDR","N",NA,NA,183,"1984-00-00",NA,NA,"Russian corer",5,NA,NA,502,"Saint Sixte","FRA-50000-SAIN",NA,"FRA","50","000",45,25,33,"N",45.425833,"45.25.33N",5,37,43,"E",5.628611,"  5.37.43",720,2
"90",594,503,"SJSL972","D9","Y","N","Y","PFEN","N","100 m south of the open water",NA,88,"1973-00-00",0,NA,"Hiller corer",3,NA,"This coring is duplicated by a Smith coring from the surface to 6m depth (coring SJSLS).",503,"Lac Saint Léger","FRA-04000-LACS",NA,"FRA","04","000",44,25,12,"N",44.42,"44.25.12N",6,20,11,"E",6.336389,"  6.20.11E",1308,14
"91",595,503,"SJSLC","D11","Y","N","Y","PMIR","N",NA,NA,88,"0000-00-00",0,NA,"Coûteaux and Hiller corers",8,NA,"Couteaux corer down to 190 cm then Hiller corer to the base.",503,"Lac Saint Léger","FRA-04000-LACS",NA,"FRA","04","000",44,25,12,"N",44.42,"44.25.12N",6,20,11,"E",6.336389,"  6.20.11E",1308,14
"92",596,503,"SJSLS","D10","Y","N","Y","PFEN","N",NA,NA,88,"0000-00-00",0,NA,"Smith corer",10,NA,"Complement to the Hiller corer SJSL972.",503,"Lac Saint Léger","FRA-04000-LACS",NA,"FRA","04","000",44,25,12,"N",44.42,"44.25.12N",6,20,11,"E",6.336389,"  6.20.11E",1308,14
"93",611,516,"SOGUT",NA,"Y","N","Y","LNDR","N","SE part of lake, 7.5km NW of Kizilcadag",NA,103,"1974-06-00",0,NA,"Dachnowski",3.6,NA,NA,516,"Sögüt Gölü","TUR-08000-SOGU",NA,"TUR","08","000",36,59,51,"N",36.9975,"36.59.51N",29,53,54,"E",29.898333," 29.53.54E",1400,500
"94",616,520,"SONBOU",NA,"Y","N","Y","MCOA","N","Lagoons",NA,453,"1994-00-00",2880,NA,"Industrial corer",10,NA,NA,520,"Son Bou","ESP-04000-SONB",NA,"ESP","04","000",39,55,29,"N",39.924722,"39.55.29N",4,1,38,"E",4.027222,"  4.01.38E",12,NA
"95",628,531,"STSAU","boring I and II","Y","N","Y","ESTU","N","500 m at North Lattes archeological site",NA,347,"1994-00-00",NA,NA,"Russian sampler",10,NA,NA,531,"Saint Sauveur","FRA-46000-SAIN",NA,"FRA","46","000",43,33,59,"N",43.566389,"43.33.59N",3,55,0,"E",3.916667,"  3.55.00E",1,NA
"96",635,537,"SUH2","core 2","Y","N","Y","UNKN","N",NA,NA,172,"1976-07-00",NA,NA,"Streif sampler",5,NA,"The coring is done at the centrum of the peat bog developed on the place of lake.",537,"Dry Lake II","BGR-01000-DRYL","N1986","BGR","01","000",42,3,0,"N",42.05,"42.03.00N",23,32,0,"E",23.533333," 23.32.00E",1900,2
"97",650,550,"TENAGI1",NA,"Y","N","Y","MCOA","N",NA,NA,227,"1972-00-00",NA,NA,"Unspecified device",NA,NA,NA,550,"Tenaghi Philippon","GRC-26000-TENA",NA,"GRC","26","000",40,59,0,"N",40.983333,"40.59.00N",24,47,0,"E",24.783333," 24.47.00E",10,NA
"98",651,551,"TG8",NA,"Y","N","Y","ESTU","N",NA,NA,NA,"1987-00-00",54,NA,"Unspecified device",NA,NA,NA,551,"Delta del Rio Besos","ESP-09000-TG8",NA,"ESP","09","000",41,22,49,"N",41.380278,"41.22.49N",2,14,54,"E",2.248333,"  2.14.54E",0,NA
"99",653,553,"TM1","core 1","Y","N","Y","PMSH","N","South western part",NA,411,"1981-00-00",445,NA,"hand coring equipment and Dachnowski",2,NA,"Check the depth at the coring location with Spasimir Tonkov.",553,"Tschokljovo Marsh","BGR-11000-TSCH",NA,"BGR","11","000",42,22,0,"N",42.366667,"42.22.00N",22,50,0,"E",22.833333," 22.50.00E",870,180
"100",661,561,"TOURVES",NA,"Y","N","Y","UNKN","N",NA,NA,313,"1997-00-00",NA,NA,"Helicoidal",NA,NA,NA,561,"Tourves","FRA-90000-TOUR",NA,"FRA","90","000",43,30,0,"N",43.5,"43.30.00N",5,54,0,"E",5.9,"  5.54.00E",298,NA
"101",675,133,"VALPROV2","D13","Y","N","Y","PMIR","N","Center of the marsh",NA,88,"1975-10-00",0,NA,"Smith corer",7,NA,"The top of the sequence was not sampled. It is present in another coring Vallon de Provence 1. See diagramme D12.",133,"Vallon de Provence","FRA-04000-VALL",NA,"FRA","04","000",44,23,28,"N",44.391111,"44.23.28N",6,24,15,"E",6.404167,"  6.24.15E",2075,0.25
"102",680,577,"VEGORIT",NA,"Y","N","Y","UNKN","N","N. Greece, W. of Plain of Macedonia",NA,103,"0000-00-00",31,NA,"Mackereth",6,NA,NA,577,"Vegoritis 8","GRC-16000-VEGO",NA,"GRC","16","000",40,45,0,"N",40.75,"40.45.00N",21,45,0,"E",21.75," 21.45.00E",570,6830
"103",683,222,"VENICE",NA,"Y","N","Y","UNKN","N",NA,NA,NA,"0000-00-00",NA,NA,"Unspecified device",NA,NA,NA,222,"Venice","ITA-20000-VENI",NA,"ITA","20","000",45,30,0,"N",45.5,"45.30.00N",12,15,0,"E",12.25," 12.15.00E",22,NA
"104",688,583,"VIVIIS",NA,"Y","N","Y","UNKN","N","West side of the drained lake Viviis",NA,103,"1963-00-00",NA,NA,"Unspecified device",NA,NA,NA,583,"Lake Viviis","GRC-34000-LAKE",NA,"GRC","34","000",39,35,0,"N",39.583333,"39.35.00N",22,47,0,"E",22.783333," 22.47.00E",50,NA
"105",693,588,"VOLVI",NA,"Y","N","Y","UNKN","N","E. Macedonia, N. of Chalkidiki peninsula",NA,103,"0000-00-00",1950,NA,"Mackereth",6,NA,NA,588,"Volvi 6","GRC-48000-VOLV",NA,"GRC","48","000",40,45,0,"N",40.75,"40.45.00N",23,30,0,"E",23.5," 23.30.00E",100,7370
"106",721,614,"PRARION",NA,"Y","N","Y","UNKN","N",NA,NA,88,"0000-00-00",NA,NA,"Unspecified device",NA,NA,NA,614,"Plateau de Prarion","FRA-41000-PLAT",NA,"FRA","41","000",45,53,5,"N",45.884722,"45.53.05N",6,44,58,"E",6.749444,"  6.44.58E",1857,NA
"107",722,615,"PRE2","core 4","Y","N","Y","UNKN","N",NA,NA,189,"0000-00-00",NA,NA,"Unspecified device",NA,NA,NA,615,"Col du Pré","FRA-80000-COLD",NA,"FRA","80","000",45,41,21,"N",45.689167,"45.41.21N",6,36,38,"E",6.610556,"  6.36.38E",1730,0.1
"108",737,630,"OUVEIL2","core 1","Y","N","Y","LNSL","N",NA,"Agricultural, cultivated",254,"1992-00-00",NA,NA,"Unspecified device",NA,NA,NA,630,"Etang d'Ouveillan","FRA-10000-ETAN",NA,"FRA","10","000",43,16,0,"N",43.266667,"43.16.00N",3,0,0,"E",3,"  3.00.00E",6,NA
"109",738,631,"PLAINEP","core 1","Y","N","Y","PBOG","N",NA,NA,316,"0000-00-00",NA,NA,"Russian",7,NA,NA,631,"Plaine Alpe","FRA-43000-PLAI",NA,"FRA","43","000",44,57,50,"N",44.963889,"44.57.50N",6,35,39,"E",6.594167,"  6.35.39E",1850,NA
"110",739,632,"PREROND","core 1","Y","N","Y","PBOG","N",NA,NA,316,"0000-00-00",NA,NA,"Russian",7,NA,NA,632,"Pré Rond","FRA-43000-PRER",NA,"FRA","43","000",44,55,8,"N",44.918889,"44.55.08N",6,35,39,"E",6.594167,"  6.35.39E",1800,NA
"111",757,644,"ASP3","AS3","Y","N","Y","OTHR","N",NA,"Corena/Lygos shrub and planted Pinus pinea",394,"1979-04-00",NA,NA,"Open section",NA,NA,NA,644,"El Asperillo","ESP-01000-ELAS",NA,"ESP","01","000",37,4,16,"N",37.071111,"37.04.16N",6,50,0,"W",-6.833333,"  6.50.00W",15,25
"112",759,646,"BARCA",NA,"Y","N","Y","UNKN","N",NA,NA,355,"0000-00-00",NA,NA,"Russian peat-borer",NA,NA,NA,646,"Barcaggio","FRA-37000-BARC",NA,"FRA","37","000",43,0,21,"N",43.005833,"43.00.21N",9,24,13,"E",9.403611,"  9.24.13E",2,NA
"113",760,647,"BASTANI1",NA,"Y","N","Y","UNKN","N",NA,NA,355,"0000-00-00",NA,NA,"Mackereth sampler",NA,NA,NA,647,"Bastani","FRA-20000-BAST",NA,"FRA","20","000",42,3,57,"N",42.065833,"42.03.57N",9,7,56,"E",9.132222,"  9.07.56E",2089,NA
"114",761,647,"BASTANI2","core 2","Y","N","Y","UNKN","N",NA,NA,355,"0000-00-00",NA,NA,"Mackereth sampler",NA,NA,NA,647,"Bastani","FRA-20000-BAST",NA,"FRA","20","000",42,3,57,"N",42.065833,"42.03.57N",9,7,56,"E",9.132222,"  9.07.56E",2089,NA
"115",770,656,"CANNUTA",NA,"Y","N","Y","UNKN","N",NA,NA,355,"0000-00-00",NA,NA,"Russian peat borer",NA,NA,NA,656,"Cannuta","FRA-37000-CANN",NA,"FRA","37","000",42,30,0,"N",42.5,"42.30.00N",9,6,0,"E",9.1,"  9.06.00E",12,NA
"116",771,657,"CAPITELL",NA,"Y","N","Y","UNKN","N",NA,NA,355,"0000-00-00",NA,NA,"Mackereth borer",NA,NA,NA,657,"Capitello","FRA-20000-CAPI",NA,"FRA","20","000",42,12,36,"N",42.21,"42.12.36N",9,0,22,"E",9.006111,"  9.00.22E",1930,NA
"117",775,660,"CHA1",NA,"Y","N","Y","UNKN","N",NA,NA,174,"1993-00-00",NA,NA,"Unspecified device",NA,NA,NA,660,"Lac de Champlong","ITA-19000-LACD",NA,"ITA","19","000",45,49,30,"N",45.825,"45.49.30N",7,48,25,"E",7.806944,"  7.48.25E",2300,0.6
"118",779,664,"CRENO",NA,"Y","N","Y","UNKN","N","Center of the lake",NA,355,"1995-00-00",7,NA,"Livingstone piston sampler",8,NA,NA,664,"Lac de Creno","FRA-20000-CREN",NA,"FRA","20","000",42,12,3,"N",42.200833,"42.12.03N",8,56,51,"E",8.9475,"  8.56.51E",1280,2.4
"119",780,665,"CRET",NA,"Y","N","Y","UNKN","N",NA,NA,174,"1993-00-00",NA,NA,"Unspecified device",NA,NA,NA,665,"Tourbière Lo Cret","ITA-19000-TOUR",NA,"ITA","19","000",45,54,28,"N",45.907778,"45.54.28N",7,50,30,"E",7.841667,"  7.50.30E",1869,5.5
"120",788,672,"DRASSANE",NA,"Y","N","Y","MCOA","N",NA,"Platanus, Phoenix (garden vegetation)",428,"1988-05-00",NA,NA,"Craelius",10,NA,NA,672,"Drassanes","ESP-09000-DRAS",NA,"ESP","09","000",41,22,35,"N",41.376389,"41.22.35N",2,10,54,"E",2.181667,"  2.10.54E",6,25
"121",812,263,"JEU2","core 7","Y","N","Y","UNKN","N",NA,NA,189,"0000-00-00",NA,NA,"Unspecified device",NA,NA,NA,263,"Plan du Jeu","FRA-80000-PLAN",NA,"FRA","80","000",45,36,26,"N",45.607222,"45.36.26N",6,31,56,"E",6.532222,"  6.31.56E",2010,0.2
"122",821,307,"LAIT1","core 1","Y","N","Y","UNKN","N",NA,NA,189,"0000-00-00",NA,NA,"Unspecified device",NA,NA,NA,307,"Lac du Lait","FRA-80000-LACD",NA,"FRA","80","000",45,18,55,"N",45.315278,"45.18.55N",6,49,0,"E",6.816667,"  6.49.00E",2190,0.26
"123",831,707,"LOD",NA,"Y","N","Y","UNKN","N",NA,NA,174,"1993-00-00",NA,NA,"Unspecified device",NA,NA,NA,707,"Lac de Lod","ITA-19000-LACD",NA,"ITA","19","000",45,48,9,"N",45.8025,"45.48.09N",7,36,35,"E",7.609722,"  7.36.35E",1460,4
"124",832,708,"LODITOR",NA,"Y","N","Y","UNKN","N",NA,NA,174,"1993-00-00",NA,NA,"Unspecified device",NA,NA,NA,708,"Tourbière de Loditor","ITA-19000-TOUR",NA,"ITA","19","000",45,48,3,"N",45.800973,"45.48.03N",7,36,34,"E",7.610123,"  7.36.34E",1470,1.8
"125",842,718,"MOULINAS","core 9","Y","N","Y","OTHR","N","Central part of the small site","Herb",355,"1988-06-00",0,NA,"Russian peat corer",5,NA,NA,718,"Moulinasse","FRA-10000-MOUL",NA,"FRA","10","000",42,41,0,"N",42.683333,"42.41.00N",2,14,8,"E",2.235556,"  2.14.08E",1330,NA
"126",845,720,"NASSET","Les Nassettes, Mont Lozère","Y","N","Y","PBOG","N",NA,NA,355,"1984-00-00",NA,NA,"Unspecified device",NA,NA,NA,720,"Tourbière des Nassettes","FRA-59000-NASS","Y2000","FRA","59","000",44,28,0,"N",44.466667,"44.28.00N",3,38,30,"E",3.641667,"  3.38.30E",1375,8
"127",846,721,"NEGRE","core 6","Y","N","Y","PMSH","N","In the northern part of the site","Carex",355,"1989-07-00",0,NA,"Russian sampler",5,NA,NA,721,"Gourg Nègre","FRA-76000-GOUR",NA,"FRA","76","000",42,38,0,"N",42.633333,"42.38.00N",2,13,0,"E",2.216667,"  2.13.00E",2080,0.5
"128",849,724,"OSTRICO1",NA,"Y","N","Y","UNKN","N","Lagoon",NA,355,"0000-00-00",NA,NA,"Russian peat borer",NA,NA,NA,724,"Ostriconi","FRA-37000-OSTR",NA,"FRA","37","000",42,36,0,"N",42.6,"42.36.00N",9,6,0,"E",9.1,"  9.06.00E",10,NA
"129",850,724,"OSTRICO2","core 2","Y","N","Y","UNKN","N","Lagoon",NA,355,"0000-00-00",NA,NA,"Russian peat borer",NA,NA,NA,724,"Ostriconi","FRA-37000-OSTR",NA,"FRA","37","000",42,36,0,"N",42.6,"42.36.00N",9,6,0,"E",9.1,"  9.06.00E",10,NA
"130",851,725,"PADUL2",NA,"Y","N","Y","UNKN","N",NA,NA,355,"1983-00-00",NA,NA,"Russian sampler",NA,NA,NA,725,"Padul","ESP-01000-PADU",NA,"ESP","01","000",37,0,0,"N",37,"37.00.00N",3,4,0,"W",-3.066667,"  3.04.00W",785,NA
"131",857,615,"PRE1","core 3","Y","N","Y","UNKN","N",NA,NA,189,"0000-00-00",NA,NA,"Unspecified device",NA,NA,NA,615,"Col du Pré","FRA-80000-COLD",NA,"FRA","80","000",45,41,21,"N",45.689167,"45.41.21N",6,36,38,"E",6.610556,"  6.36.38E",1730,0.1
"132",860,482,"SAISIES1","core 5","Y","N","Y","UNKN","N",NA,NA,189,"0000-00-00",NA,NA,"Unspecified device",NA,NA,NA,482,"Les Saisies","FRA-80000-LESS",NA,"FRA","80","000",45,44,14,"N",45.737222,"45.44.14N",6,28,37,"E",6.476944,"  6.28.37E",1570,0.5
"133",861,732,"SALECCE","Saleccia","Y","N","Y","LACU","N",NA,"Pinus halepensis forest",355,"1984-00-00",NA,NA,"Russian peat borer",NA,NA,NA,732,"Saleccia","FRA-37000-SALE",NA,"FRA","37","000",42,43,22,"N",42.722778,"42.43.22N",9,12,15,"E",9.204167,"  9.12.15E",15,NA
"134",882,750,"VERRA",NA,"Y","N","Y","UNKN","N",NA,NA,174,"1993-00-00",NA,NA,"Unspecified device",NA,NA,NA,750,"Pian di Verra superiore","ITA-19000-PIAN",NA,"ITA","19","000",45,53,50,"N",45.897222,"45.53.50N",7,41,30,"E",7.691667,"  7.41.30E",2380,6.5
"135",889,757,"FANGO08",NA,"Y","N","Y","UNKN","N","Marsh","Vitis and Clematis vitalba",355,"0000-00-00",NA,NA,"Russian peat borer",NA,NA,NA,757,"Le Fango","FRA-37000-LEFA",NA,"FRA","37","000",42,25,1,"N",42.416944,"42.25.01N",8,39,51,"E",8.664167,"  8.39.51E",10,NA
"136",891,759,"ALCUDIA",NA,"Y","N","Y","MCOA","N","NE of Mallorca island",NA,339,"1992-00-00",0,NA,"Unspecified device",NA,NA,NA,759,"Albufera Alcudia","ESP-04000-ALBU",NA,"ESP","04","000",39,47,34,"N",39.792778,"39.47.34N",3,7,9,"E",3.119167,"  3.07.09E",0,NA
"137",892,760,"N-CAS","core 1","Y","N","Y","LNPL","N","Lake centre","Annual halophytes",191,"1991-07-21",NA,NA,"Cobra percussion corer",7,NA,NA,760,"Hoya del Castillo","ESP-02000-HOYA",NA,"ESP","02","000",41,15,0,"N",41.25,"41.15.00N",0,30,0,"W",-0.5,"  0.30.00W",260,10
"138",893,761,"N-GUA","core 1","Y","N","Y","LNPL","N","Lake centre","Annual halophytes, some perrenials",191,"1991-07-14",NA,NA,"Cobra percussion corer",7,NA,NA,761,"Laguna Guallar","ESP-02000-LAGU",NA,"ESP","02","000",41,24,0,"N",41.4,"41.24.00N",0,13,0,"W",-0.216667,"  0.13.00W",336,9.2
"139",896,764,"TRIKHON5",NA,"Y","N","Y","UNKN","N","SW. Greece, province of Arkanania","Transitional zone Mediterranean/deciduous forest",103,"0000-00-00",31,NA,"Mackereth",6,NA,NA,764,"Trikhonis 5","GRC-03000-TRIK",NA,"GRC","03","000",38,36,0,"N",38.6,"38.36.00N",21,30,0,"E",21.5," 21.30.00E",20,9830
"140",905,771,"CHA2",NA,"Y","N","Y","UNKN","N",NA,NA,174,"1993-00-00",NA,NA,"Unspecified device",NA,NA,NA,771,"Tourbière de Champlong","ITA-19000-TOUR",NA,"ITA","19","000",45,49,15,"N",45.820833,"45.49.15N",7,48,27,"E",7.8075,"  7.48.27E",2320,5.6
"141",907,773,"CRISTOL","boring 1","Y","N","Y","PBOG","N","in the peat located in the west part of the lake","grassland",317,"1997-00-00",NA,NA,"Russian corer",NA,NA,NA,773,"Cristol Lake","FRA-43000-CRIS",NA,"FRA","43","000",44,59,51,"N",44.9975,"44.59.51N",6,38,0,"E",6.633333,"  6.38.00E",2248,1.8
"142",908,774,"CROVAN03","core 2","Y","N","Y","UNKN","N","Pond",NA,355,"0000-00-00",NA,NA,"Russian peat borer",NA,NA,NA,774,"Crovani","FRA-37000-CROV",NA,"FRA","37","000",42,28,10,"N",42.469444,"42.28.10N",8,40,56,"E",8.682222,"  8.40.56E",10,2
"143",909,774,"CROVANI",NA,"Y","N","Y","UNKN","N",NA,NA,355,"0000-00-00",NA,NA,"Russian peat borer",NA,NA,NA,774,"Crovani","FRA-37000-CROV",NA,"FRA","37","000",42,28,10,"N",42.469444,"42.28.10N",8,40,56,"E",8.682222,"  8.40.56E",10,2
"144",916,781,"LGC","core 1","Y","N","Y","LNVO","N","Centre of dry lake bed","Mixed deciduous woodland, dominated by Quercus cerris and Quercus pubescens, with evergreen oaks on south facing rocky crater slopes. Castenea, Olea and Vitis abundant in the surroundings.",299,"0000-00-00",NA,NA,"Wire-line engine-operated",10,NA,NA,781,"Lagaccione","ITA-07000-LAGA",NA,"ITA","07","000",42,34,0,"N",42.566667,"42.34.00N",11,51,0,"E",11.85," 11.51.00E",355,49
"145",918,783,"N-PEQ","core 1","Y","N","Y","LNPL","N","Lake centre","Annual halophytes",191,"1991-07-20",NA,NA,"Cobra percussion corer",7,NA,NA,783,"Salada Pequeña","ESP-02000-SALA",NA,"ESP","02","000",41,2,0,"N",41.033333,"41.02.00N",0,13,0,"W",-0.216667,"  0.13.00W",357,21
"146",919,784,"N-SAL","core 1","Y","N","Y","LACU","N","Deepest part","Halophytes, tamarix",191,"1991-07-17",500,NA,"Livingstone (fat/thin)",5,NA,"First metre cored using fat (10cm) Livingstone.",784,"Laguna Salada Chiprana","ESP-02000-LAGU",NA,"ESP","02","000",41,14,0,"N",41.233333,"41.14.00N",0,10,0,"W",-0.166667,"  0.10.00W",150,23
"147",920,785,"PEUIL",NA,"Y","N","Y","PBOG","N","uphill part of the peat","Sphagnum, Calluna, Molinia",317,"1997-00-00",NA,NA,"Russian corer",NA,NA,NA,785,"Peuil Peat Bog","FRA-50000-PEUI",NA,"FRA","50","000",45,7,30,"N",45.125,"45.07.30N",5,38,37,"E",5.643611,"  5.38.37E",970,3.1
"148",921,786,"PILAZ",NA,"Y","N","Y","UNKN","N",NA,NA,174,"1993-00-00",NA,NA,"Unspecified device",NA,NA,NA,786,"Tourbière de Pilaz","ITA-19000-TOUR",NA,"ITA","19","000",45,49,1,"N",45.816944,"45.49.01N",7,50,0,"E",7.833333,"  7.50.00E",1460,1.5
"149",922,787,"PRGNP","core 1","Y","N","Y","PMIR","N","Core taken at deepest point of transect",NA,442,"0000-00-00",NA,NA,"Russian/Abbey/Stitz",5,NA,"Coring difficulties due to variable texture of the sediments. Cored to bedrock.",787,"Lago Pratignano","ITA-05000-LAGO",NA,"ITA","05","000",44,10,34,"N",44.176111,"44.10.34N",10,49,11,"E",10.819722," 10.49.11E",1307,2
"150",923,788,"RILMAN","core 1","Y","N","Y","LACU","N",NA,NA,411,"1991-07-00",NA,NA,"Dachnowski",NA,NA,NA,788,"Lake Suho Ezero","BGR-07000-LAKE",NA,"BGR","07","000",42,8,0,"N",42.133333,"42.08.00N",23,25,0,"E",23.416667," 23.25.00E",1900,1.95
"151",928,793,"VACC3","core 1","Y","N","Y","UNKN","N",NA,NA,399,"0000-00-00",NA,NA,"Unspecified device",NA,NA,NA,793,"Vaccarès III","FRA-13000-VACC",NA,"FRA","13","000",43,32,30,"N",43.541667,"43.32.30N",4,32,38,"E",4.543889,"  4.32.38E",1,NA
"152",929,794,"VICO_V1","core 1","Y","N","Y","LNVO","N","Southern part of lake in 22.6m water","Planted hazel, woodland",299,"1992-04-00",2260,NA,"Livingstone",8,NA,NA,794,"Lago di Vico","ITA-07000-LAGO",NA,"ITA","07","000",42,19,0,"N",42.316667,"42.19.00N",12,10,0,"E",12.166667," 12.10.00E",510,1200
"153",930,795,"VILLA",NA,"Y","N","Y","UNKN","N",NA,NA,174,"1993-00-00",NA,NA,"Unspecified device",NA,NA,NA,795,"Lac de Villa","ITA-19000-LACD",NA,"ITA","19","000",45,41,5,"N",45.684722,"45.41.05N",7,45,40,"E",7.761111,"  7.45.40E",820,1.7
"154",931,796,"BANYOLES","core 2","Y","N","Y","LNAT","N","East bank of the lake",NA,339,"0000-00-00",NA,NA,"Unspecified device",NA,NA,NA,796,"Lake Banyoles","ESP-09000-BO4",NA,"ESP","09","000",42,8,0,"N",42.133333,"42.08.00N",2,45,0,"E",2.75,"  2.45.00E",173,NA
"155",932,382,"LGM90D",NA,"Y","N","Y","LNAT","N","Southern side of the lake's outflow",NA,28,"1993-04-00",0,NA,"Square-rod piston corer",7.5,NA,NA,382,"Lago Grande di Monticchio","ITA-02000-LAGO",NA,"ITA","02","000",40,56,40,"N",40.944444,"40.56.40N",15,36,0,"E",15.6," 15.36.00E",1326,NA
"156",933,797,"CORREO","boring 1","Y","N","Y","PBOG","N","in the middle of the peat","Grassland",317,"1998-00-00",NA,NA,"Russian corer",NA,NA,NA,797,"Correo","FRA-43000-CORR",NA,"FRA","43","000",44,30,30,"N",44.508333,"44.30.30N",5,58,59,"E",5.983056,"  5.58.59E",1090,1.04
"157",937,800,"KOILADHA",NA,"Y","N","Y","MARI","N","South Argolis, Kiladha Bay","Quercus coccifera dominated Mediterranean vegetation",103,"1985-00-00",1020,NA,"75 cm piston-type corer",4,NA,NA,800,"Koiladha","GRC-04000-KOIL",NA,"GRC","04","000",37,33,0,"N",37.55,"37.33.00N",23,6,0,"E",23.1," 23.06.00E",-10,1000
"158",949,810,"HOYRAN",NA,"Y","N","Y","PMSH","N","SW Turkey, 3km SE of Asagikasikara","Butomus, Scirpus, Mentha, Phragmites",103,"1974-06-00",0,NA,"Dachnowski",3.6,NA,NA,810,"Hoyran Gölü","TUR-39000-HOYR",NA,"TUR","39","000",38,16,30,"N",38.275,"38.16.30N",30,52,30,"E",30.875," 30.52.30E",920,NA
"159",951,811,"KOPAIS",NA,"Y","N","Y","UNKN","N",NA,NA,227,"1973-00-00",NA,NA,"Unspecified device",NA,NA,NA,811,"Kopais","GRC-50000-KOPA",NA,"GRC","50","000",38,29,0,"N",38.483333,"38.29.00N",23,4,0,"E",23.066667," 23.04.00E",10,NA
"160",953,813,"LERNA",NA,"Y","N","Y","MCOA","N","Ca 150m from the beach, gulf of Argos",NA,454,"1987-07-00",0,NA,"Edelman corer",NA,NA,NA,813,"Lake Lerna","GRC-04000-LERN",NA,"GRC","04","000",37,35,0,"N",37.583333,"37.35.00N",22,45,0,"E",22.75," 22.45.00E",0,243
"161",962,725,"PADUL3",NA,"Y","N","Y","UNKN","N",NA,NA,355,"0000-00-00",NA,NA,"Unspecified device",NA,NA,NA,725,"Padul","ESP-01000-PADU",NA,"ESP","01","000",37,0,0,"N",37,"37.00.00N",3,4,0,"W",-3.066667,"  3.04.00W",785,NA
"162",964,822,"PINARBAS",NA,"Y","N","Y","UNKN","N",NA,NA,103,"0000-00-00",NA,NA,"Unspecified device",NA,NA,NA,822,"Pinarbasi","TUR-20000-PINA",NA,"TUR","20","000",37,28,0,"N",37.466667,"37.28.00N",30,3,0,"E",30.05," 30.03.00E",970,NA
"163",976,832,"XINIAS",NA,"Y","N","Y","UNKN","N",NA,NA,103,"1965-00-00",NA,NA,"Dachnowski and Livingstone (2.8)",3.6,NA,NA,832,"Lake Xinias","GRC-18000-LAKE",NA,"GRC","18","000",39,3,0,"N",39.05,"39.03.00N",22,16,0,"E",22.266667," 22.16.00E",500,NA
"164",981,835,"AKGOL",NA,"Y","N","Y","UNKN","N",NA,NA,103,"0000-00-00",NA,NA,"Unspecified device",NA,NA,NA,835,"Akgöl Adabag","TUR-44000-AKGO",NA,"TUR","44","000",37,30,0,"N",37.5,"37.30.00N",33,44,0,"E",33.733333," 33.44.00E",999,NA
"165",982,836,"ANNA",NA,"Y","N","Y","UNKN","N",NA,NA,174,"0000-00-00",NA,NA,"Unspecified device",NA,NA,NA,836,"Tourbière de Santa Anna","ITA-19000-TOUR",NA,"ITA","19","000",45,51,30,"N",45.858333,"45.51.30N",7,39,15,"E",7.654167,"  7.39.15E",2304,13.7
"166",1015,865,"STFRONTA","core SFA","Y","N","N","LACU","N","Centre of the lake","Maar",145,"1994-00-00",500,NA,"Stationary piston corer Sedidr",8,NA,NA,865,"Saint Front Lake","FRA-38000-STFR","Y2000","FRA","38","000",44,58,50,"N",44.980556,"44.58.50N",4,10,9,"E",4.169167,"  4.10.09E",1234,30
"167",1019,867,"AC4HOLO","AC3/4 Holocene","Y","N","N","LACU","N","50m west from the shore",NA,636,"0000-00-00",3900,NA,"Russian sampler",8,NA,NA,867,"Lago dell'Accesa","ITA-16000-AC4L",NA,"ITA","16","000",42,59,12,"N",42.986667,"42.59.12N",10,53,30,"E",10.891667," 10.53.30",160,16
"168",1020,867,"AC4LATE","AC3/4 Late-Glacial","Y","N","N","LACU","N",NA,NA,636,"0000-00-00",3900,NA,"Russian sampler",8,NA,NA,867,"Lago dell'Accesa","ITA-16000-AC4L",NA,"ITA","16","000",42,59,12,"N",42.986667,"42.59.12N",10,53,30,"E",10.891667," 10.53.30",160,16
"169",1039,883,"FATE",NA,"Y","N","N","PBOG","N","western part of Anna di Vinadio Valley","Cyperaceae, Juncaceae",618,"0000-00-00",NA,NA,"Russian corer",NA,NA,NA,883,"Lago delle Fate","ITA-12000-FATE",NA,"ITA","12","000",44,16,0,"N",44.266667,"44.16.00N",7,6,0,"E",7.1,"  7.06.00E",2130,NA
"170",1040,884,"MONDOVI",NA,"Y","N","N","PBOG","N","southern part of the Ellero Valley","Cyperaceae, Juncaceae",618,"0000-00-00",NA,NA,"Russian corer",NA,NA,NA,884,"Refugio Mondovi","ITA-12000-MOND",NA,"ITA","12","000",44,11,0,"N",44.183333,"44.11.00N",7,44,0,"E",7.733333,"  7.44.00E",1760,NA
"171",1041,885,"ORGIALS",NA,"Y","N","Y","PBOG","N","western part of Anna di Vinadio Valley","Cyperaceae, Juncaceae",618,"0000-00-00",NA,NA,"Russian corer",NA,NA,NA,885,"Laghi dell'Orgials","ITA-12000-ORGI",NA,"ITA","12","000",44,14,0,"N",44.233333,"44.14.00N",7,8,0,"E",7.133333,"  7.08.00E",2240,NA
"172",1042,886,"BIECAI",NA,"Y","N","N","PBOG","N","southern part of the Ellero Valley","Cyperaceae, Juncaceae",618,"0000-00-00",NA,NA,"Russian corer",NA,NA,NA,886,"Torbiera del Biecai","ITA-12000-BIEC",NA,"ITA","12","000",44,12,0,"N",44.2,"44.12.00N",7,42,0,"E",7.7,"  7.42.00E",1920,NA
"173",1048,890,"BEGBUNAR",NA,"Y","N","Y","PBOG","N",NA,"Cyperaceae Sphagnum",211,"0000-00-00",NA,NA,NA,NA,NA,NA,890,"Peat-bog Begbunar","BGR-07000-BEGB",NA,"BGR","07","000",42,9,0,"N",42.15,"42.09.00N",22,33,0,"E",22.55," 22.33.00E",1750,NA
"174",1051,892,"LUITEL","profil 3","Y","N","N","LACU","N","Pass of Luitel in french alps","Subalpine mountain vegetation",444,"0000-00-00",350,NA,NA,NA,NA,"close to Grenoble",892,"Col Luitel","FRA-50000-LUIT","Y2000","FRA","50","000",45,5,18,"N",45.088333,"45.05.18N",5,50,59,"E",5.849722,"  5.50.59E",1250,20
"175",1053,894,"LANZBOG",NA,"Y","N","Y","PBOG","N",NA,"oligotrophic bog communities",670,"0000-00-00",NA,NA,"Russian corer",NA,NA,NA,894,"Lanzahíta","ESP-08000-LANZ",NA,"ESP","08","000",40,13,20,"N",40.222222,"40.13.20N",4,56,9,"W",-4.935833,"  4.56.09W",588,0.02
"176",1055,896,"AELBI","Älbi Flue","Y","N","Y","PMIR","N",NA,"mire; ca. raised bog",419,"1997-07-10",0,NA,"spade",10,0,NA,896,"Älbi Flue","CHE-23000-AELB","Y1998","CHE","23","000",46,35,55,"N",46.598611,"46.35.55N",7,58,35,"E",7.976389,"  7.58.35E",1850,0.01
"177",1056,897,"ALETSW","Aletschwald","Y","N","Y","PFVL","N",NA,"minerotrophic mire",675,"1971-00-00",NA,NA,"Hiller corer",NA,NA,NA,897,"Aletschwald","CHE-23000-ALET",NA,"CHE","23","000",46,23,23,"N",46.389722,"46.23.23N",8,1,32,"E",8.025556,"  8.01.32E",2017,0.1
"178",1057,897,"ALETSW1","Aletschwald I","Y","N","N","PFVL","N",NA,"minerotrophic mire",675,"1956-09-18",NA,NA,"Hiller corer",NA,NA,NA,897,"Aletschwald","CHE-23000-ALET",NA,"CHE","23","000",46,23,23,"N",46.389722,"46.23.23N",8,1,32,"E",8.025556,"  8.01.32E",2017,0.1
"179",1058,897,"ALETSW2","Aletschwald II","Y","N","Y","PFVL","N",NA,"minerotrophic mire",675,"1971-09-18",NA,NA,"Hiller corer",NA,NA,"ALPADABA",897,"Aletschwald","CHE-23000-ALET",NA,"CHE","23","000",46,23,23,"N",46.389722,"46.23.23N",8,1,32,"E",8.025556,"  8.01.32E",2017,0.1
"180",1059,897,"ALETSCHW","Aletschwald PJ","Y","N","Y","PMIR","N",NA,"mire",419,"1997-08-04",0,NA,"spade",20,0,NA,897,"Aletschwald","CHE-23000-ALET",NA,"CHE","23","000",46,23,23,"N",46.389722,"46.23.23N",8,1,32,"E",8.025556,"  8.01.32E",2017,0.1
"181",1061,898,"BACHALP","Bachalpsee","Y","N","Y","LNAT","N",NA,"open water",295,"1996-04-00",NA,NA,"Gravity c.+ mod.Livingstone c.",NA,NA,NA,898,"Bachalpsee","CHE-23000-BACH","Y1999","CHE","23","000",46,40,10,"N",46.6694444,"46.40.10N",8,1,15,"E",8.020833,"  8.01.15E",2265,8
"182",1064,901,"BELALP1","Belalp Ba I","Y","N","Y","PFVL","N","near Tyndall memorial",NA,675,"1956-09-25",NA,NA,"Hiller corer",NA,NA,NA,901,"Alp Lüsga Belalp 1","CHE-23000-BELA",NA,"CHE","23","000",46,13,51,"N",46.230833,"46.13.51N",7,35,25,"E",7.590278,"  7.35.25E",2330,NA
"183",1065,902,"BELALP2","Belalp IIF","Y","N","Y","PFSL","N","not far from Belalp 1 2330 m",NA,675,"1968-08-02",NA,NA,"Hiller corer",NA,NA,NA,902,"Alp Lüsga Belalp 2","CHE-23000-BELA",NA,"CHE","23","000",46,23,4,"N",46.384444,"46.23.04N",7,58,39,"E",7.9775,"  7.58.39E",2310,NA
"184",1066,903,"BEVERA","Lago di Bévera","Y","N","Y","LNGL","N","deepest part of lake","open water",419,"1991-06-28",2.2,NA,"HON-Kajak corer (Renberg 1991)",6,NA,NA,903,"Lago di Bévera","ITA-12000-BEVE","Y1998","ITA","12","000",45,51,9,"N",45.8525,"45.51.09N",8,53,41,"E",8.894722,"  8.53.41E",340,1.5
"185",1068,905,"BITSCH3","Bitsch-Naters","Y","N","N","PFVL","N",NA,"none",675,"1956-09-24",NA,NA,"Hiller corer",NA,NA,NA,905,"Bitsch-Naters","CHE-23000-BITS","N1982","CHE","23","000",46,20,28,"N",46.341111,"46.20.28N",7,59,30,"E",7.991667,"  7.59.30E",1089,NA
"186",1069,906,"BODMEN1","Bodmen 1","Y","N","Y","PFEN","N","80 m from ""Fluhrand"", 30 m from spring","Hypnaceae mire",675,"1968-00-00",NA,NA,"Hiller corer",NA,NA,NA,906,"Bodmen Alp Bel","CHE-23000-BODM",NA,"CHE","23","000",46,21,16,"N",46.363056,"46.21.16N",7,57,52,"E",7.964444,"  7.57.52E",1916,NA
"187",1070,906,"BODMEN2","Bodmen 2","Y","N","Y","PFEN","N","30 m from ""Fluhrand"", 80 m from spring","Hypnaceae mire",675,"1968-00-00",NA,NA,"Hiller corer",NA,NA,NA,906,"Bodmen Alp Bel","CHE-23000-BODM",NA,"CHE","23","000",46,21,16,"N",46.363056,"46.21.16N",7,57,52,"E",7.964444,"  7.57.52E",1916,NA
"188",1071,906,"BODMEN3","Bodmen 3","Y","N","Y","TSOI","N","near ""Fluhrand"",outside spring influence","trees and shrubs",675,"1968-00-00",NA,NA,"spade",NA,NA,NA,906,"Bodmen Alp Bel","CHE-23000-BODM",NA,"CHE","23","000",46,21,16,"N",46.363056,"46.21.16N",7,57,52,"E",7.964444,"  7.57.52E",1916,NA
"189",1072,907,"BRETAYE","Lac de Bretaye","Y","N","Y","LNGL","N","deepest part of lake","open water",419,"1992-07-08",800,NA,"HON-Kajak corer (Renberg 1991)",6,NA,NA,907,"Lac de Bretaye","CHE-24000-BRET","Y1998","CHE","24","000",46,19,34,"N",46.326111,"46.19.34N",7,4,20,"E",7.072222,"  7.04.20E",1786,4
"190",1074,909,"CINUSKEL","Cinuskel","Y","N","N","PMIR","N","existing open section of peat cut",NA,675,"1955-08-13",NA,NA,"samples from old peat cutting",NA,NA,NA,909,"Cinuskel","CHE-10000-CINU",NA,"CHE","10","000",46,38,37,"N",46.643611,"46.38.37N",10,1,25,"E",10.023611," 10.01.25E",1615,NA
"191",1075,147,"CLAP68","core 68","Y","N","Y","PMIR","N",NA,"Carex peat",88,"1968-00-00",NA,NA,"Hiller corer",NA,NA,NA,147,"Clapeyret","FRA-05000-CLAP","Y1992","FRA","05","000",44,8,50,"N",44.147222,"44.08.50N",7,14,20,"E",7.238889,"  7.14.20E",2260,1.5
"192",1076,910,"DOSSAC1","Dossaccio I","Y","N","N","PBRA","N","middle to N part,16m W of road near Fort","raised bog,some Pinus sylv.+dwarf shrubs",675,"1963-09-19",NA,NA,"Hiller corer",NA,NA,NA,910,"Dossaccio Bormio","ITA-09000-DOSS",NA,"ITA","09","000",46,28,14,"N",46.470556,"46.28.14N",10,20,14,"E",10.337222," 10.20.14E",1698,1.5
"193",1077,910,"DOSSAC2","Dossaccio II","Y","N","N","PBRA","N","ca.30m N of road on broadest part of bog","treeless raised bog",675,"1975-10-09",NA,NA,"Hiller corer",NA,NA,NA,910,"Dossaccio Bormio","ITA-09000-DOSS",NA,"ITA","09","000",46,28,14,"N",46.470556,"46.28.14N",10,20,14,"E",10.337222," 10.20.14E",1698,1.5
"194",1078,910,"DOSSAC3","Dossaccio III","Y","N","N","PBRA","N","ca.30m N of road on broadest part of bog","treeless raised bog",675,"1979-09-19",NA,NA,"Hiller corer",NA,NA,NA,910,"Dossaccio Bormio","ITA-09000-DOSS",NA,"ITA","09","000",46,28,14,"N",46.470556,"46.28.14N",10,20,14,"E",10.337222," 10.20.14E",1698,1.5
"195",1079,910,"DOSSACC","Dossaccio","Y","N","N","PBRA","N",NA,"raised bog",675,"1963-00-00",NA,NA,"Hiller corer",NA,NA,NA,910,"Dossaccio Bormio","ITA-09000-DOSS",NA,"ITA","09","000",46,28,14,"N",46.470556,"46.28.14N",10,20,14,"E",10.337222," 10.20.14E",1698,1.5
"196",1080,911,"EGGEN","Eggen ob Blatten","Y","N","N","PFVL","N","centre of basin, 20-40 m from moraine",NA,675,"1971-09-17",NA,NA,"Hiller corer, Spade",NA,NA,NA,911,"Eggen ob Blatten","CHE-23000-EGGE",NA,"CHE","23","000",46,22,19,"N",46.371944,"46.22.19N",7,59,26,"E",7.990556,"  7.59.26E",1654,NA
"197",1081,911,"EGGEN2","Eggen ob Blatten 2","Y","N","N","PFVL","N","centre of basin, 20 m from moraine","meadow, mire",675,"1971-09-18",NA,NA,"Hiller corer",NA,NA,NA,911,"Eggen ob Blatten","CHE-23000-EGGE",NA,"CHE","23","000",46,22,19,"N",46.371944,"46.22.19N",7,59,26,"E",7.990556,"  7.59.26E",1654,NA
"198",1082,911,"EGGEN3","Eggen ob Blatten 3","Y","N","N","PFVL","N","centre of basin, 40 m from moraine","meadow, mire",675,"1971-09-16",NA,NA,"spade",NA,NA,NA,911,"Eggen ob Blatten","CHE-23000-EGGE",NA,"CHE","23","000",46,22,19,"N",46.371944,"46.22.19N",7,59,26,"E",7.990556,"  7.59.26E",1654,NA
"199",1083,911,"EGGEN56","Eggen ob Blatten 56","Y","N","Y","PFVL","N","centre of basin, 40 m from moraine",NA,675,"1956-09-25",NA,NA,"Hiller corer",NA,NA,NA,911,"Eggen ob Blatten","CHE-23000-EGGE",NA,"CHE","23","000",46,22,19,"N",46.371944,"46.22.19N",7,59,26,"E",7.990556,"  7.59.26E",1654,NA
"200",1087,913,"FELDD2","Feld D2","Y","N","N","PMIR","N",NA,"FEN",NA,"1997-10-27",0,NA,NA,NA,0,NA,913,"Feld Alp Holzmatten","CHE-23000-FELD","Y2001","CHE","23","000",46,39,33,"N",46.659167,"46.39.33N",8,0,15,"E",8.004167,"  8.00.15E",2148,NA
"201",1090,916,"GANNA","Lago di Ganna","Y","N","Y","LNGL","N","deepest part of lake","open water",419,"1991-06-26",3,NA,"HON-Kajak corer (Renberg 1991)",6,NA,NA,916,"Lago di Ganna","ITA-12000-GANN","Y1998","ITA","12","000",45,53,51,"N",45.8975,"45.53.51N",8,49,39,"E",8.8275,"  8.49.39E",452,6
"202",1092,918,"GONDO","Gondo-Alpjen 2","Y","N","Y","PFVL","N","20m N of the hut at E side of depression","wet supalpine hay-field vegetation",675,"1964-09-05",NA,NA,"Hiller corer",NA,NA,NA,918,"Gondo Alpjen","CHE-23000-GOND",NA,"CHE","23","000",46,12,42,"N",46.211667,"46.12.42N",8,6,48,"E",8.113333,"  8.06.48E",1724,8
"203",1093,919,"GIORGIO","Monte San Giorgio S1","Y","N","Y","TSOI","N","soil profile between stones","grassland",419,"1991-12-05",0,NA,"HON-Kajak corer (Renberg 1991)",NA,NA,NA,919,"Monte San Giorgio","CHE-21000-GIOR","Y1998","CHE","21","000",45,54,34,"N",45.909444,"45.54.34N",8,57,14,"E",8.953889,"  8.57.14E",990,0.5
"204",1094,920,"GRAECH51","Grächen-See (2)","Y","N","Y","PFOW","N",NA,"Carex fusca floating mire",675,"1951-07-00",NA,NA,"Hiller corer",NA,NA,NA,920,"Grächen See","CHE-23000-GRAE",NA,"CHE","23","000",46,11,44,"N",46.195556,"46.11.44N",7,50,42,"E",7.845,"  7.50.42E",1725,NA
"205",1095,920,"GRAECHEN","Grächen-See","Y","N","Y","PFOW","N",NA,"Carex fusca floating mire",675,"1973-07-21",NA,NA,"Hiller corer",NA,NA,NA,920,"Grächen See","CHE-23000-GRAE",NA,"CHE","23","000",46,11,44,"N",46.195556,"46.11.44N",7,50,42,"E",7.845,"  7.50.42E",1725,NA
"206",1096,921,"GREICH2","Greicheralp","Y","N","Y","PFVL","N",NA,"meadow",675,"1956-09-17",NA,NA,"Hiller corer",NA,NA,NA,921,"Greicheralp Riederalp","CHE-23000-GREI",NA,"CHE","23","000",46,22,47,"N",46.379722,"46.22.47N",8,1,49,"E",8.030278,"  8.01.49E",1934,NA
"207",1097,922,"GRINDJI","Grindjisee","Y","N","Y","LNGL","N","deepest part of lake","open water",419,"1991-08-05",1.5,NA,"HON-Kajak corer (Renberg 1991)",6,NA,NA,922,"Grindjisee","CHE-23000-GRIN","Y1998","CHE","23","000",46,0,42,"N",46.011667,"46.00.42N",7,47,28,"E",7.791111,"  7.47.28E",2343,1
"208",1098,923,"HAGELSEE","Hagelseeli-1","Y","N","Y","LNAT","N",NA,"open water",NA,"1996-05-05",NA,NA,"HON-Kajak corer (Renberg 1991)",NA,NA,NA,923,"Hagelseeli","CHE-23000-HAGE",NA,"CHE","23","000",46,40,22,"N",46.672778,"46.40.22N",8,2,7,"E",8.035278,"  8.02.07E",2346,2.5
"209",1101,926,"HELLELEN","Zeneggen-Hellelen B","Y","N","N","PFVL","N","E of Zeneggen-Hellelen A",NA,675,"1968-06-10",NA,NA,"Hiller corer",NA,NA,NA,926,"Mittlere Hellelen","CHE-23000-ZENE","Y1982","CHE","23","000",46,16,59,"N",46.283056,"46.16.59N",7,50,39,"E",7.844167,"  7.50.39E",1538,NA
"210",1102,926,"ZENEGGEN","Zeneggen-Hellelen A","Y","N","Y","PFVL","N","deepest part, E margin","Carex elata tussocks",675,"1964-04-00",NA,NA,"Hiller corer",NA,NA,NA,926,"Mittlere Hellelen","CHE-23000-ZENE","Y1982","CHE","23","000",46,16,59,"N",46.283056,"46.16.59N",7,50,39,"E",7.844167,"  7.50.39E",1538,NA
"211",1103,927,"HILAIRE1","S1","Y","N","N","PMSH","N","20m from the Est","Phragmite",183,"1980-00-00",NA,NA,"Russian corer GIK",5,NA,NA,927,"Saint Hilaire du Rosier","FRA-50000-HILA",NA,"FRA","50","000",45,4,15,"N",45.070833,"45.04.15N",5,15,24,"E",5.256667,"  5.15.24E",190,0.5
"212",1104,927,"HILAIRE2","S2","Y","N","N","PMSH","N","70m from the Est","Phragmite",183,"1981-00-00",NA,NA,"Supercarottier",8,NA,NA,927,"Saint Hilaire du Rosier","FRA-50000-HILA",NA,"FRA","50","000",45,4,15,"N",45.070833,"45.04.15N",5,15,24,"E",5.256667,"  5.15.24E",190,0.5
"213",1106,929,"ILFUORN","Il Fuorn","Y","N","Y","PMIR","N",NA,"Sphagn.fusc.,Cx.pauc.,Eriop.vag.,Oxycocc",675,"1955-08-10",NA,NA,"Hiller corer",NA,NA,NA,929,"Il Fuorn","CHE-10000-ILFU",NA,"CHE","10","000",46,39,46,"N",46.662778,"46.39.46N",10,12,36,"E",10.21," 10.12.36E",1805,NA
"214",1120,935,"JUFPLAN","Juf Plan","Y","N","N","PMIR","N","NW part af foot of large debris slope","Salix foet.,Carex4spp.,Prim.far.,Sel.sel",675,"1958-09-04",NA,NA,"Hiller corer",NA,NA,NA,935,"Juf Plan","CHE-10000-JUFP",NA,"CHE","10","000",46,37,35,"N",46.626389,"46.37.35N",10,15,35,"E",10.259722," 10.15.35E",2222,NA
"215",1121,936,"HOPSTOP","Hopschensee (top)","Y","N","Y","LNGL","N","lake","open water",NA,"1994-08-30",NA,NA,"Frozen finger",NA,NA,NA,936,"Hopschensee","CHE-23000-HOPS","Y1997","CHE","23","000",46,15,9,"N",46.2525,"46.09.04N",8,1,23,"E",8.023056,"  8.01.23E",2026,1
"216",1122,936,"HOPSCHEN","Hopschensee","Y","N","Y","PFOW","N","lower shore-terrace,18m W from dry slope",NA,675,"1962-10-00",NA,NA,"Hiller corer",NA,NA,NA,936,"Hopschensee","CHE-23000-HOPS","Y1997","CHE","23","000",46,15,9,"N",46.2525,"46.09.04N",8,1,23,"E",8.023056,"  8.01.23E",2026,1
"217",1123,936,"HOPSCH1","Simplon-Hopschensee 1","Y","N","N","PFOW","N","upper shore-terrace,27m W from dry slope","wet Nardetum",675,"1962-10-03",NA,NA,"Hiller corer",NA,NA,NA,936,"Hopschensee","CHE-23000-HOPS","Y1997","CHE","23","000",46,15,9,"N",46.2525,"46.09.04N",8,1,23,"E",8.023056,"  8.01.23E",2026,1
"218",1127,938,"LUISSEL","Etang de Luissel","Y","N","N","LNAT","N",NA,NA,675,"1961-03-00",NA,NA,"Hiller corer",NA,NA,NA,938,"Etang de Luissel Bex","CHE-23000-LUIS",NA,"CHE","23","000",46,14,14,"N",46.237222,"46.14.14N",7,1,3,"E",7.0175,"  7.01.03E",522,NA
"219",1128,939,"MACUN","Macun","Y","N","N","LNAT","N","1.5 m from W shore","open water",675,"1960-09-14",22,NA,"Dachnowski corer",NA,NA,NA,939,"Macun Val Zeznina ob Zernez","CHE-10000-MACU",NA,"CHE","10","000",46,43,42,"N",46.728333,"46.43.42N",10,7,58,"E",10.132778," 10.07.58E",2626,NA
"220",1129,940,"MONTCARR","Mont Carré","Y","N","N","PFVL","N",NA,NA,675,"1964-08-03",NA,NA,"Hiller corer",NA,NA,NA,940,"Mont Carré Hérémence","CHE-23000-MONT",NA,"CHE","23","000",46,9,14,"N",46.153889,"46.09.14N",7,22,7,"E",7.368611,"  7.22.07E",2295,NA
"221",1136,945,"NILEDS2","Core S2","Y","N","N","TERR","N",NA,NA,58,"1985-00-00",0,NA,"combination rotary percussion",6,0,NA,945,"Nile Delta S2","EGY-01000-NILE",NA,"EGY","01","000",31,18,0,"N",31.3,"31.18.00N",31,36,0,"E",31.6," 31.36.00E",1,NA
"222",1137,946,"NILEDS6","Core S6","Y","N","N","TERR","N",NA,NA,58,"1985-00-00",0,NA,"combination rotary percussion",6,0,NA,946,"Nile Delta S6","EGY-01000-NILE",NA,"EGY","01","000",31,6,30,"N",31.108333,"31.06.30N",31,43,0,"E",31.716667," 31.43.00E",2,NA
"223",1138,947,"OBERAAR","Oberaar G I 112","Y","N","Y","PMIR","N","""12.38 m"", just outside moraine A.D.1860","Caricetum fuscae trichophoretosum",689,"0000-00-00",0,NA,"digging",NA,NA,NA,947,"Oberaar","CHE-23000-OBER",NA,"CHE","23","000",46,32,50,"N",46.547222,"46.32.50N",8,15,20,"E",8.255556,"  8.15.20E",2380,NA
"224",1142,951,"PILLON","Pillon","Y","N","Y","PFVL","N","small mire below Lac de Retaud",NA,675,"1964-00-00",NA,NA,"Hiller corer",NA,NA,NA,951,"Pillon Gsteig-Diablerets","CHE-23000-PILL",NA,"CHE","23","000",46,21,35,"N",46.359722,"46.21.35N",7,11,55,"E",7.198611,"  7.11.55E",1686,NA
"225",1143,952,"RIFFEL","Riffelsee","Y","N","Y","LNGL","N","deepest part of lake","open water",419,"1991-08-10",4,NA,"HON-Kajak corer (Renberg 1991)",6,NA,NA,952,"Riffelsee","CHE-23000-RIFF","Y1998","CHE","23","000",45,58,60,"N",45.983333,"45.58.60N",7,45,43,"E",7.761944,"  7.45.43E",2762,1
"226",1146,953,"ROBII33","Robiei II/33m","Y","N","N","PFVL","N",NA,NA,675,"1965-09-22",NA,NA,"Hiller corer",NA,NA,NA,953,"Alpi di Robièi Val Bavona","CHE-21000-ROB3","N1965","CHE","21","000",46,26,42,"N",46.445,"46.26.42N",8,31,6,"E",8.518333,"  8.31.06E",1936,NA
"227",1147,953,"ROBII30","Robiei II/30m","Y","N","N","PFVL","N",NA,NA,675,"1965-08-17",NA,NA,"technical coring",NA,NA,NA,953,"Alpi di Robièi Val Bavona","CHE-21000-ROB3","N1965","CHE","21","000",46,26,42,"N",46.445,"46.26.42N",8,31,6,"E",8.518333,"  8.31.06E",1936,NA
"228",1148,953,"ROB316","Robiei 3/16m","Y","N","N","PFVL","N",NA,NA,675,"1965-08-17",NA,NA,"Hiller corer",NA,NA,NA,953,"Alpi di Robièi Val Bavona","CHE-21000-ROB3","N1965","CHE","21","000",46,26,42,"N",46.445,"46.26.42N",8,31,6,"E",8.518333,"  8.31.06E",1936,NA
"229",1152,957,"TREPALLE","Trepalle","Y","N","Y","PMIR","N","20 m below main road","very dry (dissiccated)Ericaceae hummocks",675,"1975-10-10",NA,NA,"Hiller corer",NA,NA,NA,957,"Trepalle Livigno","ITA-09000-TREP",NA,"ITA","09","000",46,31,8,"N",46.518889,"46.31.08N",10,10,59,"E",10.183056," 10.10.59E",2020,NA
"230",1158,963,"SCHWAVS","Schwarzsee VS","Y","N","Y","LNGL","N","deepest part of lake","open water",419,"1991-08-12",500,NA,"HON-Kajak corer (Renberg 1991)",6,NA,NA,963,"Schwarzsee VS","CHE-23000-SCHW","Y1998","CHE","23","000",45,59,27,"N",45.990833,"45.59.27N",7,42,25,"E",7.706944,"  7.42.25E",2554,1
"231",1161,966,"SPITTEL","Simplon-Alter Spittel","Y","N","Y","PFVL","N","right in the middle of the mire","nearly ombrotrophic mire vegetation",675,"1973-09-00",NA,NA,"Hiller corer",NA,NA,NA,966,"Simplon/Gampisch-Alter Spittel","CHE-23000-SPIT","Y1979","CHE","23","000",46,13,52,"N",46.231111,"46.13.52N",8,0,41,"E",8.011389,"  8.00.41E",1885,0.04
"232",1167,971,"UMBRAIL","Umbrail","Y","N","Y","PMIR","N",NA,"Carex fusca,Eriophorum latifolium",675,"1963-09-19",NA,NA,"Hiller corer",NA,NA,"in Border beetwen Italia and Zwitzerland",971,"Umbrail","CHE-10000-UMBR",NA,"CHE","10","000",46,32,38,"N",46.543889,"46.32.38N",10,26,5,"E",10.434722," 10.26.05E",2490,NA
"233",1168,972,"XIRES","Montana-Xirès","Y","N","N","PFVL","N","below restaur.Alpina and hotel Excelsior",NA,675,"1956-09-06",NA,NA,"Hiller corer",NA,NA,NA,972,"Xirès Montana","CHE-23000-XIRE",NA,"CHE","23","000",46,18,33,"N",46.309167,"46.18.33N",7,28,20,"E",7.472222,"  7.28.20E",1501,NA
"234",1169,973,"YCOR","Etang d'y Cor","Y","N","Y","LNAT","N","in peat ca. 8 m SW of lake margin","mire",675,"1938-06-26",0,NA,"Hiller corer",NA,NA,NA,973,"Etang d'y Cor Montana","CHE-23000-YCOR","N2000","CHE","23","000",46,18,42,"N",46.311667,"46.18.42N",7,28,45,"E",7.479167,"  7.28.45E",1506,0.2
"235",1170,974,"WALLB1","Wallbach I","Y","Y","Y","PFEN","N",NA,"Caricetum fuscae + Trichophoretum caesp.",675,"1959-08-00",NA,NA,"spade to 155 cm, Hiller corer",NA,NA,NA,974,"Wallbach Lenk","CHE-23000-WALL",NA,"CHE","23","000",46,25,42,"N",46.428333,"46.25.42N",7,24,11,"E",7.403056,"  7.24.11E",1876,NA
"236",1171,974,"WALLB3","Wallbach III","Y","N","Y","PFEN","N",NA,NA,675,"1959-08-00",NA,NA,NA,NA,NA,NA,974,"Wallbach Lenk","CHE-23000-WALL",NA,"CHE","23","000",46,25,42,"N",46.428333,"46.25.42N",7,24,11,"E",7.403056,"  7.24.11E",1876,NA
"237",1172,974,"WALLB8","Wallbach VIII","Y","N","Y","PFEN","N",NA,NA,675,"1959-08-00",NA,NA,NA,NA,NA,NA,974,"Wallbach Lenk","CHE-23000-WALL",NA,"CHE","23","000",46,25,42,"N",46.428333,"46.25.42N",7,24,11,"E",7.403056,"  7.24.11E",1876,NA
"238",1173,974,"WALLB9","Wallbach IX Forsthütte","Y","N","Y","PFEN","N",NA,NA,675,"1959-08-00",NA,NA,NA,NA,NA,NA,974,"Wallbach Lenk","CHE-23000-WALL",NA,"CHE","23","000",46,25,42,"N",46.428333,"46.25.42N",7,24,11,"E",7.403056,"  7.24.11E",1876,NA
"239",1177,976,"PSM90III","PSM90/3","Y","N","N","LNAT","N",NA,"open water",NA,"1990-07-00",4400,NA,"Kullenberg piston corer (12cm)",5,NA,NA,976,"Lej da San Murezzan","CHE-10000-PSM9",NA,"CHE","10","000",46,29,42,"N",46.495,"46.29.42N",9,51,0,"E",9.85,"  9.51.00",1770,78
"240",1181,980,"NILEDS7","Core S7","Y","N","N","TERR","N",NA,NA,58,"1985-00-00",0,NA,"combination rotary percussion",6,0,NA,980,"Nile Delta S7","EGY-01000-NILE",NA,"EGY","01","000",31,7,30,"N",31.125,"31.07.30N",31,52,0,"E",31.866667," 31.52.00E",1,NA
"241",1182,981,"NILEDS8","Core S8","Y","N","N","TERR","N",NA,NA,58,"1985-00-00",0,NA,"combination rotary percussion",6,0,NA,981,"Nile Delta S8","EGY-01000-NILE",NA,"EGY","01","000",31,13,0,"N",31.216667,"31.13.00N",32,2,0,"E",32.033333," 32.02.00E",0,NA
"242",1194,992,"RINDERP","Rinderplatz","Y","N","N","PBRA","N",NA,"Sphagnum hummock-hollows, Cyperaceae",724,"0000-00-00",NA,NA,"Geonor corer",5.4,NA,NA,992,"Rinderplatz","ITA-17000-RIND",NA,"ITA","17","000",46,38,41,"N",46.644722,"46.38.41N",11,29,40,"E",11.494444," 11.29.40E",1780,NA
"243",1195,993,"DURA","Dura-Moor","Y","N","N","PFVL","N",NA,"Cyperaceae mire",724,"0000-00-00",NA,NA,"Geonor corer",5.4,NA,NA,993,"Dura-Moor","ITA-17000-DURA",NA,"ITA","17","000",46,38,24,"N",46.64,"46.38.24N",11,27,32,"E",11.458889," 11.27.32E",2080,NA
"244",1196,994,"MALSCH","Malschötscher Hotter","Y","N","N","PBRA","N",NA,NA,724,"0000-00-00",NA,NA,"Geonor corer",5.4,NA,NA,994,"Malschötscher Hotter","ITA-17000-MALS",NA,"ITA","17","000",46,39,58,"N",46.666111,"46.39.58N",11,27,30,"E",11.458333," 11.27.30E",2050,NA
"245",1197,995,"SCHWARZ","Schwarzsee","Y","N","N","LNGL","N",NA,NA,724,"0000-00-00",NA,NA,"Russian corer",NA,NA,NA,995,"Schwarzsee","ITA-17000-SCHW",NA,"ITA","17","000",46,39,59,"N",46.666389,"46.39.59N",11,25,55,"E",11.431944," 11.25.55E",2033,NA
"246",1223,1012,"ORGE1","Lac du Mont d'Orge I","Y","N","N","PFOW","N","in eastern Phragmites belt","Phragmites mire along lake",675,"1953-10-00",NA,NA,"Hiller corer",NA,NA,NA,1012,"Lac du Mont d'Orge Sion","CHE-23000-ORGE",NA,"CHE","23","000",46,14,4,"N",46.234,"46.14.04N",7,20,29,"E",7.338167,"  7.20.29E",640,NA
"247",1224,1012,"ORGE2","Lac du Mont d'Orge II","Y","N","N","PFOW","N","15 m N of ORGE2","Phragmites mire along lake",675,"1953-10-00",NA,NA,"Hiller corer",NA,NA,NA,1012,"Lac du Mont d'Orge Sion","CHE-23000-ORGE",NA,"CHE","23","000",46,14,4,"N",46.234,"46.14.04N",7,20,29,"E",7.338167,"  7.20.29E",640,NA
"248",1225,1012,"ORGE3","Lac du Mont d'Orge III","Y","N","N","LNAT","N","ca. 6 m from coring in 1970",NA,675,"1956-09-05",NA,NA,"Hiller corer",NA,NA,NA,1012,"Lac du Mont d'Orge Sion","CHE-23000-ORGE",NA,"CHE","23","000",46,14,4,"N",46.234,"46.14.04N",7,20,29,"E",7.338167,"  7.20.29E",640,NA
"249",1226,1012,"ORGE4","Lac du Mont d'Orge IV","Y","N","N","LNAT","N","70 cm W of ORGE3",NA,675,"1957-04-00",NA,NA,"Hiller corer",NA,NA,NA,1012,"Lac du Mont d'Orge Sion","CHE-23000-ORGE",NA,"CHE","23","000",46,14,4,"N",46.234,"46.14.04N",7,20,29,"E",7.338167,"  7.20.29E",640,NA
"250",1227,1012,"ORGE5","Lac du Mont d'Orge V","Y","N","N","LNAT","N","at N end of eastern Phragmites zone",NA,675,"1970-09-15",NA,NA,"Hiller corer",NA,NA,NA,1012,"Lac du Mont d'Orge Sion","CHE-23000-ORGE",NA,"CHE","23","000",46,14,4,"N",46.234,"46.14.04N",7,20,29,"E",7.338167,"  7.20.29E",640,NA
"251",1228,1013,"ROBSOIL","Robiei, soil","Y","N","Y","TSOI","N","on hill, above E end of barrage dam","heathland",675,"1965-00-00",NA,NA,"spade",NA,NA,NA,1013,"Alpi di Robièi Val Bavona Bodenprofil","CHE-21000-ROBS","Y1965","CHE","21","000",46,26,42,"N",46.440333,"46.26.42N",8,31,5,"E",8.517667,"  8.31.05E",1965,NA
"252",1229,1014,"LAU1",NA,"Y","N","N","LACU","N","centre of the wetland",NA,147,"0000-00-00",450,NA,NA,NA,NA,"Archaeological site",1014,"Lac du Lauzon","FRA-27000-LAU1","Y1999","FRA","27","000",44,40,31,"N",44.675278,"44.40.31N",5,47,36,"E",5.793333,"  5.47.36E",1980,NA
"253",1230,1015,"CZE1",NA,"Y","N","N","PMSH","N","NE of the marsh","Phragmite with shrubs and trees",147,"0000-00-00",NA,NA,NA,NA,NA,NA,1015,"Marais de Charauze","FRA-50000-CZE1","Y1998","FRA","50","000",45,22,6,"N",45.368333,"45.22.06N",5,34,1,"E",5.566944,"  5.34.01E",375,20
"254",1231,1016,"CHIRENS1","Tourbière de Chirens","Y","N","N","PBOG","N",NA,NA,444,"0000-00-00",NA,NA,NA,NA,NA,NA,1016,"Tourbière de Chirens","FRA-50000-CHIR","Y1977","FRA","50","000",45,25,24,"N",45.423333,"45.25.24N",5,33,42,"E",5.561667,"  5.33.42E",460,1.1
"255",1248,1032,"COL1","Les Lances core Col-1","Y","N","N","PBOG","N","around the little brook of Les Lances","Eriophorum",619,"2003-00-00",NA,NA,"Russian corer",7,NA,NA,1032,"col du Petit Saint Bernard","FRA-41000-COL2","Y2003","FRA","41","000",45,40,19,"N",45.671944,"45.40.19N",6,52,32,"E",6.875556,"  6.52.32E",2150,NA
"256",1249,1032,"COL2","L'Hospice core Col-2","Y","N","Y","PBOG","N","in the north of the old hospice","blanket of Scirpus",619,"2003-00-00",NA,NA,"Russian corer",7,NA,NA,1032,"col du Petit Saint Bernard","FRA-41000-COL2","Y2003","FRA","41","000",45,40,19,"N",45.671944,"45.40.19N",6,52,32,"E",6.875556,"  6.52.32E",2150,NA
"257",1250,1033,"DESVERNE",NA,"Y","N","Y","PBOG","N","border north of river of the little lake",NA,619,"2003-00-00",NA,NA,"Russian corer",7,NA,"2 lakes: core in the little northest one",1033,"Lac du Verney-Dessus","ITA-19000-DESV","Y2003","ITA","19","000",45,41,36,"N",45.693333,"45.41.36N",6,52,21,"E",6.8725,"  6.52.21E",2276,NA
"258",1251,1034,"VERNEY",NA,"Y","N","Y","LACU","N","in the lake",NA,619,"2003-00-00",NA,NA,"""Cajak"" corer",NA,NA,NA,1034,"Lac du Verney","ITA-19000-VERN","Y2003","ITA","19","000",45,41,12,"N",45.686667,"45.41.12N",6,52,54,"E",6.881667,"  6.52.54E",2087,NA
"259",1252,1035,"TORVERA1","core 1","Y","N","N","PBOG","N","20m to the east of Torveraz 2",NA,619,"0000-00-00",NA,NA,"Russian corer",7,NA,"altitude: 2280m in the publication 2415m with Google Earth",1035,"Torveraz","ITA-19000-TORV","Y2003","ITA","19","000",45,41,43,"N",45.695278,"45.41.43N",6,51,38,"E",6.860556,"  6.51.38E",2415,NA
"260",1253,1035,"TORVERA2","Core 2","Y","N","Y","PBOG","N","peat close to the pond",NA,619,"0000-00-00",0,NA,"Russian corer",7,NA,"altitude: 2345 in the publication 2415 with Google Earth",1035,"Torveraz","ITA-19000-TORV","Y2003","ITA","19","000",45,41,43,"N",45.695278,"45.41.43N",6,51,38,"E",6.860556,"  6.51.38E",2415,NA
"261",1254,1036,"SOLARETB",NA,"Y","N","N","PBOG","N","under the village la Rosiere",NA,619,"2003-00-00",NA,NA,"Russian corer",7,NA,NA,1036,"Sous-Solaret","FRA-41000-SOLA","Y2003","FRA","41","000",45,37,11,"N",45.619722,"45.37.11N",6,51,21,"E",6.855833,"  6.51.21E",1600,NA
"262",1255,1037,"TEPPIER",NA,"Y","N","N","PBOG","N",NA,NA,619,"2003-00-00",NA,NA,"Russian corer",7,NA,NA,1037,"Le Teppier","FRA-41000-TEPP","Y2003","FRA","41","000",45,40,50,"N",45.680556,"45.40.50N",6,49,6,"E",6.818333,"  6.49.06E",2140,NA
"263",1260,1041,"BOITES3","Boites_3","Y","N","N","LACU","N","NE border","Grassland",88,"1989-00-00",NA,NA,"Russian corer",NA,NA,"2 cores sampled",1041,"Lac des Boites","FRA-50000-BOIT","Y2000","FRA","50","000",45,3,22,"N",45.056111,"45.03.22N",5,53,7,"E",5.885278,"  5.53.07E",1560,0.1
"264",1261,1042,"MIROIR","Miroir","Y","N","N","LACU","N","west border of the lake","grassland",317,"1997-00-00",NA,NA,"Russian corer",NA,NA,NA,1042,"Lac Miroir","FRA-43000-MIRO","Y1997","FRA","43","000",44,38,7,"N",44.635278,"44.38.07N",6,47,38,"E",6.793889,"  6.47.38E",2210,1.6
"265",1262,1043,"PRAVER","Praver","Y","N","N","LACU","N","border of the lake","Carex, Sphagnum, Calluna",317,"1997-00-00",160,NA,"Russian corer",NA,NA,NA,1043,"Lac de Praver","FRA-50000-PRAV","Y2000","FRA","50","000",45,4,25,"N",45.073611,"45.04.25N",5,51,23,"E",5.856389,"  5.51.23E",1170,0.3
"266",1263,1044,"RAUX","Raux","Y","N","N","PBOG","N","middle of the basin","Carex",317,"1997-00-00",NA,NA,NA,NA,NA,NA,1044,"Tourbière de Raux","FRA-43000-RAUX","Y2000","FRA","43","000",44,30,12,"N",44.503333,"44.30.12N",5,56,7,"E",5.935278,"  5.56.07E",1770,1.7
"267",1264,1045,"MONTSEC1","Mont Sec-I","Y","N","N","PBOG","N","in the deapest part of the peat","Phragmites, Sphagnum and Calluna",317,"1997-00-00",NA,NA,NA,NA,NA,"C14 dates in Mont Sec-2",1045,"Tourbière de Mont Sec","FRA-50000-MONT","Y2000","FRA","50","000",45,4,8,"N",45.068889,"45.04.08N",5,48,24,"E",5.806667,"  5.48.24E",1130,0.6
"268",1265,1045,"MONTSEC2","Mont Sec-II","Y","N","N","PBOG","N","in the deepest part of the peat","Phragmites, Sphagnum and Calluna",317,"1997-00-00",NA,NA,NA,NA,NA,NA,1045,"Tourbière de Mont Sec","FRA-50000-MONT","Y2000","FRA","50","000",45,4,8,"N",45.068889,"45.04.08N",5,48,24,"E",5.806667,"  5.48.24E",1130,0.6
"269",1267,1047,"LANDE","La Lande","Y","N","N","PBOG","N","eastern part of the cambered peat","Sphagnum, Drosera, Eriophorum, Molinia..",88,"2000-00-00",NA,NA,"Russian corer",8,NA,NA,1047,"Tourbière de la Lande","FRA-46000-LAND","Y2000","FRA","46","000",43,34,0,"N",43.566667,"43.34.00N",2,58,0,"E",2.966667,"  2.58.00E",1040,10.7
"270",1271,720,"NASSETTE","Les Nassettes, core 18","Y","N","N","PBOG","N","SSW of the peat (on a slope)","Sphagnum, Carex, Calluna, Poaceae",88,"2000-00-00",NA,NA,"Russian corer",8,NA,"several cores sampled in the peat",720,"Tourbière des Nassettes","FRA-59000-NASS","Y2000","FRA","59","000",44,28,0,"N",44.466667,"44.28.00N",3,38,30,"E",3.641667,"  3.38.30E",1375,8
"271",1272,1049,"PEYROUTA","Peyroutarié 3","Y","N","N","PBOG","N","SW of the peat (thicker part)","Calluna, Molina, Sphagnum, Genista",88,"2000-00-00",NA,NA,"Russian corer",8,NA,"2 cores, only Peyroutarié 3 was studied",1049,"Tourbière de la Peyroutarié","FRA-46000-PEY","Y2000","FRA","46","000",44,36,34,"N",43.609444,"44.36.34N",2,55,53,"E",2.931389,"  2.55.53E",1054,2.5
"272",1283,1056,"AVG0702","core AVG 07/02","Y","N","Y","LACU","Y","center of lake","Alnus,Ulmus,Quercus,Robinia and Salix",766,"2002-00-00",2600,NA,"freeze corer",NA,NA,"LOI: Ignition residue in %(dw) Freeze core",1056,"Lago Grande di Avigliana","ITA-12000-LGA1","Y2002","ITA","12","000",45,3,54,"N",45.065,"45.03.54N",7,23,12,"E",7.386667,"  7.23.12E",353,83
"273",1284,1057,"FULLY",NA,"Y","N","N","LACU","N","open pit. lake-level very low in 2003",NA,766,"2003-00-00",0,NA,NA,NA,NA,"artificial dam built in 1914. depth around 40 m",1057,"Lac  Superieur de Fully","CHE-23000-FULL","Y2007","CHE","23","000",46,10,36,"N",46.176667,"46.10.36N",7,5,37,"E",7.093611,"  7.05.37E",2135,25
"274",1382,1106,"ELKHALED","[Ritchie84]Oumm el-Khaled","Y","N","N","PSWA","N","centre of the marsh (several ponds)","Typha, Scirpes",835,"1983-00-00",NA,NA,"Livingstone piston sampler",NA,NA,NA,1106,"Oumm el-Khaled","DZA-42000-ELKH","Y1984","DZA","42","000",35,5,0,"N",35.083333,"35.05.00N",7,36,0,"E",7.6,"  7.36.00E",970,120
"275",1383,1107,"GORGIAS",NA,"Y","N","Y","PBOG","N",NA,"grass",88,"0000-00-00",NA,NA,NA,NA,NA,NA,1107,"Tourbière Saint-Etienne de Tinet","FRA-05000-GORG",NA,"FRA","05","000",44,14,37,"N",44.243611,"44.14.37N",6,49,23,"E",6.823056,"  6.49.23E",2180,NA
"276",1384,1108,"LUGANO",NA,"Y","N","Y","LACU","Y","several cores in Swiss-Italian border",NA,836,"0000-00-00",8700,NA,NA,NA,NA,NA,1108,"Lake Lugano","CHE-21000-LUGA",NA,"CHE","21","000",45,59,30,"N",45.991667,"45.59.30N",8,58,19,"E",8.971944,"  8.58.19E",270,2030
"277",1394,1118,"LASPARDI",NA,"Y","N","N","LACU","N","central part of the lake","marsh",88,"1993-00-00",32,NA,"Russian corer",7,NA,NA,1118,"Las Pardillas Lake","ESP-08000-LASP",NA,"ESP","08","000",42,2,44,"N",42.045556,"42.02.44N",3,2,43,"W",-3.045278,"  3.02.43W",1870,0.5
"278",1420,1139,"VOULKARI",NA,"Y","N","N","LACU","N",NA,NA,253,"1997-00-00",310,NA,"Merkt-Streif piston",NA,NA,NA,1139,"Lake Voulkaria","GRC-03000-VOUL",NA,"GRC","03","000",38,52,0,"N",38.866667,"38.52.00N",20,50,0,"E",20.833333," 20.50.00E",0,1000
"279",1423,1142,"BOKABLA1","Profile 1","Y","N","N","LNDR","N",NA,"cultivated fields",872,"1968-03-18",NA,NA,"Dachnowski corer",NA,NA,"2 C14 dates in core 1 only, in the publi analysis of core 2",1142,"Bokanjacko","HRV-19000-BOKA",NA,"HRV","19","000",44,11,0,"N",44.183333,"44.11.00N",15,14,0,"E",15.233333," 15.14.00E",25,NA
"280",1424,1142,"BOKABLA2","core 2","Y","N","Y","LNDR","N",NA,"cultivated fields",872,"1968-03-18",NA,NA,"Dachnowski corer",NA,NA,"2 C14 dates in core 1 only, in the publi analysis of core 2",1142,"Bokanjacko","HRV-19000-BOKA",NA,"HRV","19","000",44,11,0,"N",44.183333,"44.11.00N",15,14,0,"E",15.233333," 15.14.00E",25,NA
"281",1440,1153,"BELIYA2C","BK-2C","Y","N","Y","PBOG","N","central part of the peat bog","Nardus, Agrostis, Eriophorum, Sphagnum",411,"0000-00-00",105,NA,"Russian corer",NA,NA,NA,1153,"Beliya Kanton","BGR-10000-BELY",NA,"BGR","10","000",41,44,1,"N",41.733611,"41.44.01N",24,8,23,"E",24.139722," 24.08.23E",1547,9.5
"282",1441,1154,"RD7B","core RD7B","Y","N","N","LACU","N","central part of the lake",NA,411,"1994-00-00",825,NA,"square-rod piston",5,NA,NA,1154,"Lake Sedmo Rilsko","BGR-07000-RD7B",NA,"BGR","07","000",42,12,39,"N",42.210833,"42.12.39N",23,19,37,"E",23.326944," 23.19.37E",2095,5.94
"283",1442,1155,"BONNII1","Bonnier II-1","Y","N","N","ESTU","N","100m in the north of Méjean pond","riparian vegetation",347,"1994-00-00",NA,NA,"Russian sampler",10,NA,NA,1155,"Bonnier","FRA-46000-BONN",NA,"FRA","46","000",43,33,52,"N",43.564444,"43.33.52N",3,54,20,"E",3.905556,"  3.54.20E",2,NA
"284",1443,1156,"MEJEANI1","Méjean I-1","Y","N","N","ESTU","N","10m in the north from Méjean pond","reed bed",347,"1994-00-00",NA,NA,"Russian sampler",10,NA,NA,1156,"Méjean","FRA-46000-MEJE",NA,"FRA","46","000",43,33,26,"N",43.557222,"43.33.26N",3,54,38,"E",3.910556,"  3.54.38E",1,NA
"285",1444,1156,"MEJEANII","Mejean II","Y","N","N","ESTU","N","several meters north from Méjean I-1","reed bed",347,"1994-00-00",NA,NA,"Russian sampler",10,NA,NA,1156,"Méjean","FRA-46000-MEJE",NA,"FRA","46","000",43,33,26,"N",43.557222,"43.33.26N",3,54,38,"E",3.910556,"  3.54.38E",1,NA
"286",1445,1157,"STADEIII","Le Stade III","Y","N","N","ESTU","N","N/NE from the archeological site Lattes","meadow",347,"1994-00-00",NA,NA,"Russian sampler",10,NA,NA,1157,"Le Stade","FRA-46000-STAD",NA,"FRA","46","000",43,34,2,"N",43.567222,"43.34.02N",3,54,28,"E",3.907778,"  3.54.28E",4,NA
"287",1447,1159,"ORESTG25",NA,"Y","N","N","LACU","N","west part of the lake,1km south Kastoria",NA,876,"1996-00-00",450,NA,NA,NA,NA,"archaeological site",1159,"Lake Orestiás","GRC-25000-ORES",NA,"GRC","25","000",40,30,42,"N",40.511667,"40.30.42N",21,15,28,"E",21.257778," 21.15.28E",630,3240
"288",1449,1161,"LAILIAS",NA,"Y","N","Y","PBOG","N",NA,NA,880,"1980-00-00",0,NA,"Dachnowsky probe",NA,NA,NA,1161,"Lailias","GRC-46000-LAIL",NA,"GRC","46","000",41,16,4,"N",41.267778,"41.16.04N",23,35,58,"E",23.599444," 23.35.58E",1420,3
"289",1450,1162,"SIDON1","BH I","Y","N","N","MCOA","N","dock of ancient harbour",NA,883,"1998-00-00",NA,NA,"rotary coring in wet phase",NA,NA,"ancient harbour of Sidon (Saïda)",1162,"Sidon","LBN-04000-SIDO",NA,"LBN","04","000",33,33,51,"N",33.564167,"33.33.51N",35,22,7,"E",35.368611," 35.22.07E",1,NA
"290",1451,1163,"TYR1","Tyre 1","Y","N","N","MCOA","N",NA,NA,883,"0000-00-00",NA,NA,NA,NA,NA,NA,1163,"Tyre","LBN-04000-TYR1",NA,"LBN","04","000",33,16,41,"N",33.278056,"33.16.41N",35,11,71,"E",35.203056," 35.11.71E",3,NA
"291",1452,1164,"LAVPICCO","AVP1,AVP2","Y","N","N","LACU","Y","centre of the lake","Alnus, Ulmus, Fraximus, Quercus, Salix",766,"2002-06-01",120,NA,"Livinfstone piston corer",NA,NA,NA,1164,"Lago Piccolo di Avigliana","ITA-12000-LAVP",NA,"ITA","12","000",45,3,12,"N",45.233,"45.03.12N",7,23,3,"E",7.388333,"  7.23.03E",356,60
"292",1458,1041,"BOITES1","Boites_1","Y","N","N","LACU","N","South border","Grassland",88,"1989-00-00",NA,NA,"Russian corer",NA,NA,"other core in the same lake",1041,"Lac des Boites","FRA-50000-BOIT","Y2000","FRA","50","000",45,3,22,"N",45.056111,"45.03.22N",5,53,7,"E",5.885278,"  5.53.07E",1560,0.1
"293",1459,1170,"LA13","core LA 13","Y","N","N","LACU","N","centre of Petit Lac (SE part of big one)",NA,88,"1997-00-00",5500,NA,"Kullenberg",NA,NA,NA,1170,"Lake of Annecy","FRA-41000-ANNE",NA,"FRA","41","000",45,51,24,"N",45.856667,"45.51.24N",6,10,20,"E",6.172222,"  6.10.20E",447,2759
"294",1460,1170,"SLA13","SLA13","Y","N","Y","LACU","N","centre of Petit Lac (SE part of big one)",NA,88,"1997-00-00",5500,NA,"Kullenberg",NA,NA,"modern part of LA13, unpublished data",1170,"Lake of Annecy","FRA-41000-ANNE",NA,"FRA","41","000",45,51,24,"N",45.856667,"45.51.24N",6,10,20,"E",6.172222,"  6.10.20E",447,2759
"295",1461,1170,"ANNECY","AN -I,-II,-III","Y","N","N","LACU","Y",NA,NA,88,"1993-00-00",5700,NA,NA,NA,NA,NA,1170,"Lake of Annecy","FRA-41000-ANNE",NA,"FRA","41","000",45,51,24,"N",45.856667,"45.51.24N",6,10,20,"E",6.172222,"  6.10.20E",447,2759
"296",1470,1178,"ADR309","core ADR309","Y","N","N","MDSE","N","basin of the Adriatic sea",NA,872,"1962-01-07",92900,NA,"piston corer",NA,NA,"NSP1962 campaign",1178,"ADR309","MES-00000-ADR3",NA,"MES","00","000",41,49,6,"N",41.818333,"41.49.06N",17,11,24,"E",17.19," 17.11.24E",-929,NA
"297",1471,1179,"ADR353","core ADR-353","Y","N","N","MDSE","N","basin of Adriatic sea",NA,872,"1962-08-10",120700,NA,"Compain Zephi piston corer",NA,NA,"doi:10.1594/PANGAEA.712186",1179,"ADR353","MES-00000-ADR3",NA,"MES","00","000",42,7,12,"N",42.12,"42.07.12N",17,37,59,"E",17.633056," 17.37.59E",-1207,NA
"298",1473,1181,"MD952043","core MD95-2043","Y","N","N","MDSE","N","Alboran Sea (channel)",NA,368,"1995-00-00",184100,NA,"Calypso corer",NA,NA,NA,1181,"MD95-2043","MES-00000-MD95",NA,"MES","00","000",36,8,36,"N",36.143333,"36.08.36N",2,37,16,"W",-2.621111,"  2.37.16W",-1841,NA
"299",1474,1182,"MD992348","core MD99-2348","Y","N","N","MDSE","N","> slope of Bourcart-Hérault interfluve",NA,399,"0000-00-00",29600,NA,"Promess drillsite",NA,NA,NA,1182,"MD99-2348 (103)","MES-00000-MD99",NA,"MES","00","000",42,41,34,"N",42.692778,"42.41.34N",3,50,30,"E",3.841667,"  3.50.30E",-296,NA
"300",1475,1183,"PRGL14","core PRGL 1-4","Y","N","N","MDSE","N","Gulf of Lions",NA,399,"2004-07-00",29900,NA,"Promess drillsite",NA,NA,"unpublished",1183,"PRGL 1-4","MES-00000-PRGL",NA,"MES","00","000",42,41,23,"N",42.689722,"42.41.23N",3,50,15,"E",3.8375,"  3.50.15E",-299,NA
"301",1476,1184,"FANGEAS",NA,"Y","N","Y","PMSH","N",NA,"Cyperaceae swamp becoming grass land",88,"2001-07-00",0,NA,"Russian corer",NA,NA,NA,1184,"Fangeas","FRA-43000-FANG",NA,"FRA","43","000",44,42,58,"N",44.716111,"44.42.58N",6,26,58,"E",6.449444,"  6.26.58E",2000,1.57
"302",1479,1186,"ORTA3","Kern 3","Y","N","N","LACU","N","south part of the centre of the lake",NA,646,"0000-00-00",NA,NA,NA,NA,NA,NA,1186,"Ortasee","ITA-12000-ORTA",NA,"ITA","12","000",45,49,0,"N",45.816667,"45.49.00N",8,24,0,"E",8.4,"  8.24.00E",290,1820
"303",1480,1186,"ORTA4","Kern 4","Y","N","N","LACU","N","centre of lake",NA,646,"0000-00-00",NA,NA,NA,NA,NA,NA,1186,"Ortasee","ITA-12000-ORTA",NA,"ITA","12","000",45,49,0,"N",45.816667,"45.49.00N",8,24,0,"E",8.4,"  8.24.00E",290,1820
"304",1481,1186,"ORTA5","Kern 5","Y","N","N","LACU","N","north part of the centre of the lake",NA,646,"0000-00-00",NA,NA,NA,NA,NA,NA,1186,"Ortasee","ITA-12000-ORTA",NA,"ITA","12","000",45,49,0,"N",45.816667,"45.49.00N",8,24,0,"E",8.4,"  8.24.00E",290,1820
"305",1484,1189,"ABIARE",NA,"Y","N","Y","PBOG","N",NA,NA,991,"0000-00-00",NA,NA,"Russian corer",NA,NA,NA,1189,"Abiare","TUN-02000-ABIA",NA,"TUN","02","000",37,9,0,"N",37.15,"37.09.00N",9,6,0,"E",9.1,"  9.06.00E",110,0.02
"306",1485,1190,"BMTIRBOG","bog","Y","N","Y","PBOG","N",NA,"Q. suber",991,"0000-00-00",NA,NA,"Russian corer",NA,NA,NA,1190,"Beni M'tir","TUN-07000-BMTI",NA,"TUN","07","000",36,43,0,"N",36.716667,"36.43.00N",8,42,0,"E",8.7,"  8.42.00E",663,NA
"307",1486,1190,"BMTIRMAR","marsh","Y","N","Y","PMSH","N",NA,"Q. canariensis",991,"0000-00-00",NA,NA,NA,NA,NA,NA,1190,"Beni M'tir","TUN-07000-BMTI",NA,"TUN","07","000",36,43,0,"N",36.716667,"36.43.00N",8,42,0,"E",8.7,"  8.42.00E",663,NA
"308",1487,1191,"DARFATMA","Dar fatma I","Y","N","Y","PMSH","N","centre of bow (peaty zone)","Anagalis Asphodelus Bellis Isoetes Lotus",991,"0000-00-00",NA,NA,"Russian corer",NA,NA,NA,1191,"Dar Fatma","TUN-07000-FATM",NA,"TUN","07","000",36,49,0,"N",36.816667,"36.49.00N",8,46,0,"E",8.766667,"  8.46.00E",780,5
"309",1488,1192,"KEFEDDBA",NA,"Y","N","Y","PBOG","N",NA,NA,991,"0000-00-00",NA,NA,"Russian corer",NA,NA,NA,1192,"Kef Eddbaâ","TUN-07000-KEFE",NA,"TUN","07","000",36,40,0,"N",36.666667,"36.40.00N",8,21,0,"E",8.35,"  8.21.00E",800,0.01
"310",1489,1193,"MAJENHMI",NA,"Y","N","Y","PALU","N",NA,NA,991,"0000-00-00",NA,NA,"Russian corer",NA,NA,NA,1193,"Majen Ben H'mida","TUN-02000-MAJE",NA,"TUN","02","000",37,8,0,"N",37.133333,"37.08.00N",9,5,0,"E",9.083333,"  9.05.00E",330,0.09
"311",1490,1194,"MAJORBOG","bog","Y","N","N","PMSH","N","peaty border of the marsh",NA,991,"0000-00-00",NA,NA,"Russian corer",NA,NA,NA,1194,"Majen El Orbi","TUN-02000-ORBI",NA,"TUN","02","000",37,9,0,"N",37.15,"37.09.00N",9,5,0,"E",9.083333,"  9.05.00E",200,NA
"312",1491,1194,"MAJORMAR","marsh","Y","N","Y","PMSH","N","centre of the basin (alt 148m)","Isoetes Juncus Nymphea Ranunculus Scirpu",991,"0000-00-00",NA,NA,"Russian corer",NA,NA,NA,1194,"Majen El Orbi","TUN-02000-ORBI",NA,"TUN","02","000",37,9,0,"N",37.15,"37.09.00N",9,5,0,"E",9.083333,"  9.05.00E",200,NA
"313",1492,1195,"OUINETEN",NA,"Y","N","Y","PBOG","N",NA,"lawn",991,"0000-00-00",NA,NA,"Russian corer",NA,NA,NA,1195,"Ouinet Ennessours","TUN-07000-OUIN",NA,"TUN","07","000",36,36,0,"N",36.6,"36.36.00N",8,24,0,"E",8.4,"  8.24.00E",1050,0.01
"314",1493,1191,"FATMA4","Dar Fatma 4","Y","N","Y","PMSH","N",NA,NA,355,"1977-00-00",NA,NA,"corer Couteaux",NA,NA,NA,1191,"Dar Fatma","TUN-07000-FATM",NA,"TUN","07","000",36,49,0,"N",36.816667,"36.49.00N",8,46,0,"E",8.766667,"  8.46.00E",780,5
"315",1494,1191,"FATMA3","Dar Fatma 3","Y","N","Y","PMSH","N",NA,NA,355,"1977-00-00",NA,NA,"Hiller probe",NA,NA,NA,1191,"Dar Fatma","TUN-07000-FATM",NA,"TUN","07","000",36,49,0,"N",36.816667,"36.49.00N",8,46,0,"E",8.766667,"  8.46.00E",780,5
"316",1495,1196,"GHORRA01","Ghorra I","Y","N","Y","PALU","N",NA,NA,994,"0000-00-00",NA,NA,NA,NA,NA,NA,1196,"Djebel El Ghorra","TUN-07000-GHOR",NA,"TUN","07","000",36,35,51,"N",36.5975,"36.35.51N",8,23,41,"E",8.394722,"  8.23.41E",1203,NA
"317",1496,1196,"GHORRA04","Ghorra IV","Y","N","Y","PALU","N",NA,NA,994,"0000-00-00",NA,NA,NA,NA,NA,NA,1196,"Djebel El Ghorra","TUN-07000-GHOR",NA,"TUN","07","000",36,35,51,"N",36.5975,"36.35.51N",8,23,41,"E",8.394722,"  8.23.41E",1203,NA
"318",1497,1194,"ORBI1","Orbi I","Y","N","Y","PMSH","N",NA,NA,994,"0000-00-00",NA,NA,NA,NA,NA,NA,1194,"Majen El Orbi","TUN-02000-ORBI",NA,"TUN","02","000",37,9,0,"N",37.15,"37.09.00N",9,5,0,"E",9.083333,"  9.05.00E",200,NA
"319",1498,1197,"MHIRIS","Mhiris Hamrane","Y","N","Y","PMSH","N","Sud of Dar Fatma",NA,355,"1978-00-00",NA,NA,"Hiller probe",NA,NA,NA,1197,"Mhiris el Hamrane","TUN-07000-MHIR",NA,"TUN","07","000",36,47,44,"N",36.795556,"36.47.44N",8,47,4,"E",8.784444,"  8.47.04E",550,NA
"320",1499,1198,"ARAGO","carottage n°2","Y","N","Y","TCAV","N","20m from the existing porch",NA,319,"1980-00-00",NA,NA,"rotary corer (no water)",8,NA,"prehistoric site (Tautavel)",1198,"Caune de l'Arago","FRA-76000-ARAG",NA,"FRA","76","000",42,50,21,"N",42.839167,"42.50.21N",2,45,2,"E",2.750556,"  2.45.02E",200,NA
"321",1500,1199,"BOURDIM",NA,"Y","N","N","PMSH","N",NA,NA,998,"1998-00-00",NA,NA,"Russian corer",NA,NA,NA,1199,"Bourdim","DZA-19000-BOUR",NA,"DZA","19","000",36,48,12,"N",36.803333,"36.48.12N",8,15,14,"E",8.253889,"  8.15.14E",13,7
"322",1501,1200,"GARATOUE",NA,"Y","N","N","PMSH","N",NA,NA,998,"1998-00-00",NA,NA,"Russian corer",NA,NA,NA,1200,"Garaat El-Ouez","DZA-19000-GARA",NA,"DZA","19","000",36,49,6,"N",36.818333,"36.49.06N",8,20,0,"E",8.333333,"  8.20.00E",45,10
"323",1502,1201,"ESTEBAN",NA,"Y","N","N","PBOG","N",NA,NA,670,"0000-00-00",NA,NA,NA,NA,NA,NA,1201,"San Esteban del valle","ESP-08000-ESTE",NA,"ESP","08","000",40,18,69,"N",40.319167,"40.18.69N",4,57,59,"W",-4.966389,"  4.57.59W",1600,NA
"324",1507,1205,"MARINET1","Marinet I","Y","N","N","LACU","N","15-75cm in the lake,90-625cm border lake",NA,88,"0000-00-00",NA,NA,NA,NA,NA,NA,1205,"Marinet","FRA-43000-MARI",NA,"FRA","43","000",44,33,47,"N",44.563056,"44.33.47N",6,51,43,"E",6.861944,"  6.51.43E",2532,NA
"325",1553,1243,"ELPAYO",NA,"Y","N","N","PMIR","N","Salamanca",NA,670,"0000-00-00",NA,NA,"Russian corer",5,NA,NA,1243,"El Payo","ESP-08000-ELPA",NA,"ESP","08","000",40,15,12,"N",40.253333,"40.15.12N",6,46,16,"W",-6.771111,"  6.46.16W",984,NA
"326",1554,1244,"PIRULEJO",NA,"N","Y","N","TCAV","N","Priego de Córdeba",NA,1019,"0000-00-00",NA,NA,NA,NA,NA,"sample depths calculated from the pollen diagram",1244,"El Pirulejo","ESP-01000-PIRU",NA,"ESP","01","000",37,26,20,"N",37.438889,"37.26.20N",4,11,42,"W",-4.195,"  4.11.42W",660,NA
"327",1556,1246,"LLIGAT",NA,"Y","N","N","MCOA","N",NA,NA,670,"0000-00-00",225,NA,"rotary pneumatic hammer",8.8,NA,NA,1246,"Posidonia Lligat","ESP-09000-LLIG",NA,"ESP","09","000",42,17,32,"N",42.292222,"42.17.32N",3,17,28,"W",-3.291111,"  3.17.28W",-3,NA
"328",1557,1247,"CASILLAS",NA,"Y","N","Y","PBOG","N","North-Est of Casillas village",NA,670,"0000-00-00",NA,NA,NA,NA,NA,NA,1247,"Puerto de Casillas","ESP-08000-CASI",NA,"ESP","08","000",40,19,59,"N",40.333056,"40.19.59N",4,34,8,"W",-4.568889,"  4.34.08W",1200,NA
"329",1558,1248,"CERIPAS",NA,"Y","N","Y","LACU","N","south of Villafáfila village",NA,670,"0000-00-00",NA,NA,NA,NA,NA,NA,1248,"Laguna de Ceripas","ESP-08000-CERI",NA,"ESP","08","000",41,49,55,"N",41.831944,"41.49.55N",5,36,21,"W",-5.605833,"  5.36.21W",678,NA
"330",1560,1250,"ADAJA",NA,"Y","N","Y","LACU","N",NA,NA,670,"0000-00-00",NA,NA,NA,NA,NA,NA,1250,"Almenara de Adaja","ESP-08000-ADAJ",NA,"ESP","08","000",41,11,31,"N",41.191944,"41.11.31N",4,40,5,"W",-4.668056,"  4.40.05W",784,0.02
"331",1561,1251,"MOLINAES","La Molina mire","Y","N","N","PMIR","N","Alto del Espina","Sphagnum",670,"2005-07-00",NA,NA,"Russian peat corer",5,NA,NA,1251,"La Molina mire","ESP-03000-MOLI",NA,"ESP","03","000",43,22,52,"N",43.381111,"43.22.52N",6,19,38,"E",6.327222,"  6.19.38E",650,32.8
"332",1563,1253,"CARRANQU",NA,"N","N","N","RIVR","N",NA,NA,670,"2007-00-00",NA,NA,"excavation: 3 samples",NA,NA,"IIIrd and IVth century AD",1253,"Toledo Carranque","ESP-07000-CARR",NA,"ESP","07","000",40,10,10,"N",40.169444,"40.10.10N",3,54,3,"W",-3.900833,"  3.54.03W",661,NA
"333",1564,1254,"SAUCEDO",NA,"N","N","N","RIVR","N",NA,NA,670,"2007-00-00",NA,NA,"excavation: 4 samples",NA,NA,"samples 4-5:III-IVc AD, samples 2-3:VI-VIIIc AD",1254,"El Saucedo","ESP-07000-SAUC",NA,"ESP","07","000",39,56,10,"N",39.936111,"39.56.10N",4,53,33,"W",-4.8925,"  4.53.33W",366,NA
"334",1565,1255,"PANERA",NA,"Y","N","Y","PBOG","N","West of Tormantos mountain","bog species",670,"2005-00-00",NA,NA,"Russian corer",NA,NA,NA,1255,"Turbera de La Panera Cabras","ESP-12000-PANE",NA,"ESP","12","000",40,9,57,"N",40.165833,"40.09.57N",5,45,29,"W",-5.758056,"  5.45.29W",1648,NA
"335",1566,1256,"CUCU",NA,"N","N","N","TCAV","N",NA,NA,670,"0000-00-00",NA,NA,"archaelogical excavation",NA,NA,"4 samples in different depth",1256,"Cucú cueva","ESP-01000-CUCU",NA,"ESP","01","000",37,38,19,"N",37.638611,"37.38.19N",2,15,29,"W",-2.258056,"  2.15.29W",1600,NA
"336",1567,1257,"PEPA",NA,"N","N","N","ARCH","N",NA,NA,670,"0000-00-00",NA,NA,"LateNeol.-Chalcol. settlement",NA,NA,NA,1257,"Sierra de la Pepa","ESP-12000-PEPA",NA,"ESP","12","000",39,23,24,"N",39.39,"39.23.24N",6,0,53,"W",-6.014722,"  6.00.53W",518,NA
"337",1568,1258,"SERRANIL",NA,"Y","N","Y","PMIR","N",NA,"oligotrophic bog",670,"2002-01-00",NA,NA,"Russian corer",NA,NA,NA,1258,"Puerto de Serranillos","ESP-08000-SERR",NA,"ESP","08","000",40,18,26,"N",40.307222,"40.18.26N",4,56,3,"W",-4.934167,"  4.56.03W",1700,2.4
"338",1569,1259,"CANALEJA","Cueva II","N","N","N","TCAV","N",NA,NA,670,"2005-00-00",NA,NA,"Excavation",NA,NA,"Archaeologic site",1259,"Canaleja","ESP-07000-CANA",NA,"ESP","07","000",40,54,0,"N",40.9,"40.54.00N",2,27,0,"W",-2.45,"  2.27.00W",1029,NA
"339",1570,1260,"BAJONDI",NA,"N","N","N","TCAV","N",NA,NA,670,"1989-00-00",NA,NA,"excavation, samples",NA,NA,"estimated depths from the publication",1260,"Bajondillo","ESP-01000-BAJO",NA,"ESP","01","000",36,37,11,"N",36.619722,"36.37.11N",4,29,47,"W",-4.496389,"  4.29.47W",20,NA
"340",1571,1261,"YESERAS",NA,"N","N","N","ARCH","N",NA,NA,670,"0000-00-00",NA,NA,NA,NA,NA,"Chalcolithic site",1261,"Camino de las Yeseras","ESP-15000-YESE",NA,"ESP","15","000",40,26,31,"N",40.441944,"40.26.31N",3,30,11,"W",-3.503056,"  3.30.11W",580,NA
"341",1572,1262,"ZAFRIN",NA,"N","Y","N","ARCH","N","plazas de soberanía (close to Morroco)",NA,670,"0000-00-00",NA,NA,"archaeological excavation",NA,NA,NA,1262,"El Zafrín","ESP-00000-ZAFR",NA,"ESP","00","000",35,10,38,"N",35.177222,"35.10.38N",2,26,19,"W",-2.438611,"  2.26.19W",10,NA
"342",1576,1266,"BM1","core BM1","Y","N","N","PFLP","N",NA,NA,620,"2008-00-00",NA,NA,"percussion corer (Beretta)",NA,NA,NA,1266,"Burmarrad ria","MLT-00000-BM1",NA,"MLT","00","000",35,56,6,"N",35.935,"35.56.06N",14,24,52,"E",14.414444," 14.24.52E",16,NA
"343",1600,1285,"POPRADSK","POP-B,C","Y","N","N","LNGD","N","Tatra-Farta region",NA,111,"0000-00-00",610,NA,NA,NA,NA,NA,1285,"Popradské  pleso","SVK-05000-POPR",NA,"SVK","05","000",39,5,4,"N",39.084444,"39.05.04N",20,4,23,"E",20.073056," 20.04.23E",1513,18
"344",1629,1306,"PENANEGR",NA,"Y","N","Y","PMIR","N","Est of La Garganta, in regional border",NA,670,"0000-00-00",NA,NA,"Russian corer sampler",NA,NA,NA,1306,"Peña Negra","ESP-12000-PENA",NA,"ESP","12","000",40,20,5,"N",40.334722,"40.20.05N",5,47,32,"W",-5.792222,"  5.47.32W",1258,NA
"345",1630,1307,"BELES",NA,"Y","N","N","PBOG","N",NA,NA,882,"0000-00-00",0,NA,"Dachnowsky probe",NA,NA,NA,1307,"Beles Mountains","GRC-46000-BELE",NA,"GRC","46","000",41,19,10,"N",41.319444,"41.19.10N",23,0,58,"E",23.016111," 23.00.58E",1400,0.05
"346",1631,1308,"PAIKO",NA,"Y","N","Y","PBOG","N","transition zone oak/beech frest",NA,880,"1982-00-00",0,NA,"Dachnowsky probe",NA,NA,"upper 25cm extracted with a spade, lower 90cm: no pollen",1308,"Mount Paiko","GRC-40000-PAIK",NA,"GRC","40","000",41,3,6,"N",41.051667,"41.03.06N",22,16,29,"E",22.274722," 22.16.29E",1080,0.25
"347",1632,1309,"PERTOYLI",NA,"Y","N","Y","PBOG","N",NA,NA,882,"0000-00-00",NA,NA,"Hiller",NA,NA,NA,1309,"Pertouli","GRC-49000-PERT",NA,"GRC","49","000",39,31,27,"N",39.524167,"39.31.27N",21,28,39,"E",21.4775," 21.28.39E",1440,0.04
"348",1633,1310,"PIERIA",NA,"Y","N","Y","PBOG","N",NA,NA,880,"1980-00-00",NA,NA,"Dachnowsky probe",NA,NA,NA,1310,"Flambouro-Pieria mountains","GRC-31000-PIER",NA,"GRC","31","000",40,15,34,"N",40.259444,"40.15.34N",22,10,15,"E",22.170833," 22.10.15E",1645,0.1
"349",1634,1311,"RHODOPI",NA,"Y","N","Y","PBOG","N",NA,NA,882,"0000-00-00",NA,NA,"Dachnowsky",NA,NA,NA,1311,"Elatia-Rhodopes","GRC-12000-RHOD",NA,"GRC","12","000",41,28,47,"N",41.479722,"41.28.47N",24,19,33,"E",24.325833," 24.19.33E",1520,0.09
"350",1635,1312,"VORAS",NA,"Y","N","Y","PBOG","N",NA,NA,882,"1977-00-00",NA,NA,NA,NA,NA,NA,1312,"Mount Voras","GRC-40000-VORA",NA,"GRC","40","000",41,1,11,"N",41.019722,"41.01.11N",21,54,44,"E",21.912222," 21.54.44E",1640,0.08
"351",1636,1313,"LITOCHOR",NA,"Y","N","Y","PMSH","N",NA,NA,882,"0000-00-00",0,NA,"Dachnovsky",NA,NA,NA,1313,"Litochoro","GRC-41000-LITO",NA,"GRC","41","000",40,8,20,"N",40.138889,"40.08.20N",22,32,46,"E",22.546111," 22.32.46E",25,2
"352",1660,1330,"ASIG1","AG-A","Y","N","Y","PBOG","N",NA,NA,1146,"1988-00-00",NA,NA,"Hiller corer",NA,NA,NA,1330,"Asi Gonia","GRC-09000-ASIG",NA,"GRC","09","000",35,14,55,"N",35.248611,"35.14.55N",24,16,40,"E",24.277778," 24.16.40E",780,1.14
"353",1661,1330,"ASIG2","AG-B","Y","N","Y","PBOG","N",NA,NA,1146,"1985-00-00",NA,NA,"vibro-corer",NA,NA,NA,1330,"Asi Gonia","GRC-09000-ASIG",NA,"GRC","09","000",35,14,55,"N",35.248611,"35.14.55N",24,16,40,"E",24.277778," 24.16.40E",780,1.14
"354",1730,1373,"CHAVANTS","Chavants","Y","N","Y","PBOG","N","SO of Les Chavants village","Sphagnum",88,"1986-00-00",NA,NA,"Hiller Borher",NA,NA,NA,1373,"Tourbières des Granges des Chavants","FRA-41000-CHAV",NA,"FRA","41","000",45,53,35,"N",45.893056,"45.53.35N",6,46,6,"E",6.768333,"  6.46.06E",1225,0.5
"355",1779,1387,"LS1960","P1960","Y","N","N","LACU","N","east of the lake",NA,160,"0000-00-00",NA,NA,"hand drill",NA,NA,"Late Glacial, Holocene",1387,"Ledrosee","ITA-17000-LS19",NA,"ITA","17","000",45,52,35,"N",45.876389,"45.52.35N",10,45,25,"E",10.756944," 10.45.25E",655,NA
"356",1780,1387,"L1960A","P1960A","Y","N","N","LACU","N","east of the lake",NA,160,"0000-00-00",NA,NA,"hand drill",NA,NA,"Late Glacial, Holocene",1387,"Ledrosee","ITA-17000-LS19",NA,"ITA","17","000",45,52,35,"N",45.876389,"45.52.35N",10,45,25,"E",10.756944," 10.45.25E",655,NA
"357",1781,1387,"LS1961","P1961","Y","N","N","LACU","N","east of the lake",NA,160,"0000-00-00",NA,NA,"outcrop",NA,NA,"Late Glacial, Holocene",1387,"Ledrosee","ITA-17000-LS19",NA,"ITA","17","000",45,52,35,"N",45.876389,"45.52.35N",10,45,25,"E",10.756944," 10.45.25E",655,NA
"358",1905,1485,"BREVIAI2","Bréviaire II","Y","N","N","RIVR","N",NA,NA,219,"0000-00-00",NA,NA,NA,NA,NA,NA,1485,"Paléochenal de Bréviaire","FRA-50000-BREV",NA,"FRA","50","000",45,38,59,"N",45.649722,"45.38.59N",5,30,59,"E",5.516389,"  5.30.59E",210,NA
"359",1906,1486,"LESAYMES",NA,"Y","N","N","RIVR","N",NA,NA,219,"0000-00-00",NA,NA,"Russian auger (GIK)",4,NA,"very close to an other core Cladocera-study with C14 dates",1486,"Paléochenal Les Aymes","FRA-50000-LESA",NA,"FRA","50","000",45,40,57,"N",45.6825,"45.40.57N",5,30,38,"E",5.510556,"  5.30.38E",210,NA
"360",1949,1516,"DUINGT1","Duingt I","Y","N","N","LACU","N","in Duingt village, border of Annecy lake",NA,356,"0000-00-00",NA,NA,NA,NA,NA,"Late Bronze age",1516,"Duingt","FRA-41000-DUIN",NA,"FRA","41","000",45,49,44,"N",45.828889,"45.49.44N",6,12,12,"E",6.203333,"  6.12.12E",446,NA
"361",1950,1517,"STJORIOZ","Saint-Jorioz","Y","N","N","LACU","N","Saint-Jorioz village, border lake Annecy",NA,356,"0000-00-00",NA,NA,NA,NA,NA,NA,1517,"Saint-Jorioz","FRA-41000-STJO",NA,"FRA","41","000",45,50,22,"N",45.839444,"45.50.22N",6,9,53,"E",6.164722,"  6.09.53E",464,NA
"362",1958,1518,"BART","Bart","Y","N","N","LACU","N",NA,NA,356,"0000-00-00",NA,NA,NA,NA,NA,NA,1518,"Lac de Bart","FRA-01000-BART",NA,"FRA","01","000",45,45,37,"N",45.760278,"45.45.37N",5,44,26,"E",5.740556,"  5.44.26E",240,NA
"363",2033,1576,"IFRIOUD","Ifri Oudadane","Y","N","N","MCOA","N","few km from west Kert river","deforestation",670,"2006-00-00",NA,NA,"Morocan-German excavation",NA,NA,"Archaeological site",1576,"Ifri Oudadane","MAR-25000-IFRI",NA,"MAR","25","000",35,12,46,"N",35.212778,"35.12.46N",3,15,30,"W",-3.258333,"  3.15.30W",9,NA
"364",2034,1577,"PATATERO",NA,"Y","N","N","PBOG","N","northern edge of Toledo mountain","Sphagnum,Erica tetralix,Molinia caerulea",670,"2008-00-00",NA,NA,"Russian corer",5,NA,NA,1577,"Patateros bog","ESP-07000-PATA",NA,"ESP","07","000",39,35,50,"N",39.597222,"39.35.50N",4,40,27,"W",-4.674167,"  4.40.27W",700,0.03
"365",2042,1584,"AV14K21","AV14_K2-1","Y","N","N","LACU","N","south-west of the lake",NA,872,"1989-04-20",2030,NA,"Piston corer",NA,NA,"settled area since Prehistoric period",1584,"Lago d'Averno","ITA-04000-AV14",NA,"ITA","04","000",40,50,12,"N",40.836667,"40.50.12N",14,4,23,"E",14.073056," 14.04.23E",2,55
"366",2043,1584,"AV14K22","AV14_K2-2","Y","N","N","LACU","N","south-west of the lake",NA,872,"1989-04-20",2030,NA,"Piston corer",NA,NA,"settled area since Prehistoric period",1584,"Lago d'Averno","ITA-04000-AV14",NA,"ITA","04","000",40,50,12,"N",40.836667,"40.50.12N",14,4,23,"E",14.073056," 14.04.23E",2,55
"367",2044,1584,"AV14K23","AV14_K2-3","Y","N","N","LACU","N","south-west of the lake",NA,872,"1989-04-20",2030,NA,"Piston corer",NA,NA,"settled area since Prehistoric, core estimated from 800 BC to 800 AD",1584,"Lago d'Averno","ITA-04000-AV14",NA,"ITA","04","000",40,50,12,"N",40.836667,"40.50.12N",14,4,23,"E",14.073056," 14.04.23E",2,55
"368",2045,1584,"AV14K24","AV14_K2-4","Y","N","N","LACU","N","south-west of the lake",NA,872,"1989-04-20",2030,NA,"Piston corer",NA,NA,"settled area since Prehistoric period",1584,"Lago d'Averno","ITA-04000-AV14",NA,"ITA","04","000",40,50,12,"N",40.836667,"40.50.12N",14,4,23,"E",14.073056," 14.04.23E",2,55
"369",2046,1585,"BONDONE","core Bondone","Y","N","N","PBOG","N",NA,NA,1421,"1964-05-22",NA,NA,"Dachnowski corer",NA,NA,NA,1585,"Bondone","ITA-17000-BOND",NA,"ITA","17","000",46,0,52,"N",46.014444,"46.00.52N",11,2,45,"E",11.045833," 11.02.45E",1550,NA
"370",2047,1586,"BOSCORNE","NE quarter","N","N","N","ARCH","N","NE quarter",NA,872,"1983-07-15",NA,NA,"sampling by hand",NA,NA,"Villa rustica of Boscoreale",1586,"Boscoreale","ITA-04000-BOSC",NA,"ITA","04","000",40,15,41,"N",40.261389,"40.15.41N",14,28,17,"E",14.471389," 14.28.17E",24,NA
"371",2048,1586,"BOSCORSW","SW quarter","N","N","N","ARCH","N","SW quarter",NA,872,"1983-07-15",NA,NA,"sampling by hand",NA,NA,"Villa rustica",1586,"Boscoreale","ITA-04000-BOSC",NA,"ITA","04","000",40,15,41,"N",40.261389,"40.15.41N",14,28,17,"E",14.471389," 14.28.17E",24,NA
"372",2049,1587,"FERSINA2","Fersina 2","Y","N","N","RIVR","N","south of Trento confluence Fersina/Adige",NA,872,"1997-00-00",NA,NA,"percussion drill",NA,NA,NA,1587,"Fersina","ITA-17000-FERS",NA,"ITA","17","000",46,2,50,"N",46.047222,"46.02.50N",11,7,8,"E",11.118889," 11.07.08E",191,NA
"373",2050,1588,"FIAVE","Fiavè","Y","N","N","PBOG","N",NA,NA,1421,"1964-05-18",NA,NA,"Dashnowski corer",NA,NA,"close to Palafittes",1588,"Fiavè","ITA-17000-FIAV",NA,"ITA","17","000",45,59,43,"N",45.995278,"45.59.43N",10,49,45,"E",10.829167," 10.49.45E",654,NA
"374",2051,1589,"OPLONTIS",NA,"N","N","N","ARCH","N","along the 60m long swimming pool",NA,872,"1983-07-15",NA,NA,"Excavation, sampling by hand",NA,NA,"archaeologial site",1589,"Oplontis","ITA-04000-OPLO",NA,"ITA","04","000",40,45,26,"N",40.757222,"40.45.26N",14,27,13,"E",14.453611," 14.27.13E",22,NA
"375",2052,1590,"POMPEII",NA,"N","N","N","ARCH","N","in the garden of gold bracelet's house",NA,872,"1983-07-15",NA,NA,"Excavation, sampling by hand",NA,NA,"archaeological site",1590,"Pompeii","ITA-04000-POMP",NA,"ITA","04","000",40,45,1,"N",40.750278,"40.45.01N",14,28,58,"E",14.482778," 14.28.58E",35,NA
"376",2053,1591,"SALTASOP","Saltarino sopra","Y","N","N","PBOG","N",NA,NA,1421,"1964-05-15",NA,NA,"Dachnowski corer",NA,NA,NA,1591,"Saltarino sopra","ITA-09000-SALT",NA,"ITA","09","000",45,31,47,"N",45.529722,"45.31.47N",10,29,59,"E",10.499722," 10.29.59E",210,NA
"377",2054,1592,"SALTASOT","Saltarino sotto","Y","N","N","PBOG","N",NA,NA,1421,"1964-05-15",NA,NA,"Dachnowski corer",NA,NA,NA,1592,"Saltarino sotto","ITA-09000-SALT",NA,"ITA","09","000",45,31,34,"N",45.526111,"45.31.34N",10,30,12,"E",10.503333," 10.30.12E",195,NA
"378",2157,1673,"TRIFOGLI","S1, S2, S3 and S4 cores","Y","N","N","LACU","N","in the lake","Carex paniculata tussocks",88,"2009-00-00",150,NA,"Russian peat corer",8,NA,NA,1673,"Lago Trifoglietti","ITA-03000-TRIF",NA,"ITA","03","000",39,32,56,"N",39.548889,"39.32.56N",16,1,20,"E",16.022222," 16.01.20E",1056,0.9
"379",2165,1680,"BLATISTO","Blatisto","Y","N","N","LACU","N","central part of the lake","Sphagnum island",411,"0000-00-00",400,NA,"Streif corer",NA,NA,NA,1680,"Lake Blatisto","BGR-19000-BLAT",NA,"BGR","19","000",41,37,17,"N",41.621389,"41.37.17N",24,40,41,"E",24.678056," 24.40.41E",1540,1.7
"380",2166,299,"KUPENA3","Kepena-3","Y","N","N","PMIR","N","peripheral northeastern part of the mire","Sphagnum moss",411,"2009-00-00",NA,NA,"Dachnowsky hand corer",NA,NA,NA,299,"Kupena","BGR-10000-KUPE",NA,"BGR","10","000",41,59,0,"N",41.983333,"41.59.00N",24,20,0,"E",24.333333," 24.20.00E",1356,8
"381",2167,1681,"GYOLA","Gyola","Y","N","N","PMIR","N","peripheral part of the mire","Carex,Alisma,Equisetum,Lysimachia,...",411,"0000-00-00",30,NA,"hand-corer",NA,NA,NA,1681,"Mire Gyola","BGR-01000-GYOL",NA,"BGR","01","000",41,21,17,"N",41.354722,"41.21.17N",23,7,31,"E",23.125278," 23.07.31E",714,0.1
"382",2169,1683,"VALDEYER","Valdeyernos","Y","N","N","PBOG","N","central part of the bog","mainly Sphagnum palustre",670,"2006-06-00",NA,NA,"Russian corer",5,NA,NA,1683,"Valdeyernos bog","ESP-07000-VALD",NA,"ESP","07","000",39,26,28,"N",39.441111,"39.26.28N",4,5,47,"W",-4.096389,"  4.05.47W",850,3.93
"383",2172,1684,"LECROS","Le Cros","Y","N","N","TSOI","N","east of Le Cros hamlet","Fagus",88,"0000-00-00",NA,NA,NA,NA,NA,NA,1684,"Le Cros","FRA-59000-LECR",NA,"FRA","59","000",44,23,26,"N",44.390556,"44.23.26N",3,46,29,"E",3.774722,"  3.46.29E",1350,NA
"384",2173,1685,"NEYRAC","Neyrac","Y","N","N","TSOI","N","500m south of Neyrac village","Pinus",88,"0000-00-00",NA,NA,NA,NA,NA,NA,1685,"Neyrac","FRA-59000-NEYR",NA,"FRA","59","000",44,27,54,"N",44.465,"44.27.54N",3,45,38,"E",3.760556,"  3.45.38E",1200,NA
"385",2174,1686,"BAISSESC","Baïssescure","Y","N","N","PBOG","N",NA,NA,88,"0000-00-00",NA,NA,"modified Hiller corer",NA,NA,NA,1686,"Baïssescure","FRA-46000-BAIS",NA,"FRA","46","000",43,33,0,"N",43.55,"43.33.00N",2,48,0,"E",2.8,"  2.48.00E",1000,3
"386",2175,1687,"FONTSALE","Font Salesse","Y","N","N","PBOG","N","200m from the cliff","Calluna and Sphagnum",88,"0000-00-00",NA,NA,NA,NA,NA,NA,1687,"Font Salesse","FRA-46000-FONT",NA,"FRA","46","000",43,36,6,"N",43.601667,"43.36.06N",2,58,44,"E",2.978889,"  2.58.44E",1060,0.2
"387",2178,1689,"SALVERGU","La Salverguette","Y","N","N","PBOG","N","200m north of Salvergues village",NA,88,"0000-00-00",NA,NA,NA,NA,NA,NA,1689,"La Salverguette","FRA-46000-SALV",NA,"FRA","46","000",43,38,27,"N",43.640833,"43.38.27N",2,54,22,"E",2.906111,"  2.54.22E",1070,NA
"388",2180,1691,"FINIELS","Finiels","Y","N","N","TSOI","N","close to road number D20","herbS",88,"0000-00-00",NA,NA,NA,NA,NA,NA,1691,"Finiels","FRA-59000-FINI",NA,"FRA","59","000",44,24,55,"N",44.415278,"44.24.55N",3,44,12,"E",3.736667,"  3.44.12E",1485,NA
"389",2181,1692,"SOURCETA","Sources du Tarn","Y","N","N","TSOI","N","western of top Cassini hill","Athyrium filis-femina",88,"0000-00-00",NA,NA,NA,NA,NA,NA,1692,"Sources du Tarn","FRA-59000-SOUR",NA,"FRA","59","000",44,24,23,"N",44.406389,"44.24.23N",3,48,17,"E",3.804722,"  3.48.17E",1545,NA
"390",2182,1693,"CAMARGUE","Les Camargues","Y","N","N","PBOG","N","close to mas ""Les Camargues""","bog",88,"0000-00-00",NA,NA,NA,NA,NA,NA,1693,"Les Camargues","FRA-59000-CAMA",NA,"FRA","59","000",44,22,54,"N",44.381667,"44.22.54N",3,49,10,"E",3.819444,"  3.49.10E",1335,NA
"391",2183,1694,"LOZERET1","Lozeret I","Y","N","N","TSOI","N","close to Lozeret hamlet","abandoned agricultural fields",88,"0000-00-00",NA,NA,NA,NA,NA,NA,1694,"Lozeret 1","FRA-59000-LOZE",NA,"FRA","59","000",44,27,51,"N",44.464167,"44.27.51N",3,45,35,"E",3.759722,"  3.45.35E",1280,NA
"392",2184,1695,"LOZERET2","Lozeret II","Y","N","N","TSOI","N","top of plateau","grassland",88,"0000-00-00",NA,NA,NA,NA,NA,NA,1695,"Lozeret 2","FRA-59000-LOZE",NA,"FRA","59","000",44,27,39,"N",44.460833,"44.27.39N",3,44,51,"E",3.7475,"  3.44.51E",1410,NA
"393",2185,1696,"LAUBIES1","Laubies I","Y","N","Y","PBOG","N","close to Laubies village",NA,88,"0000-00-00",NA,NA,NA,NA,NA,NA,1696,"Les Laubies","FRA-59000-LAUB",NA,"FRA","59","000",44,28,0,"N",44.466667,"44.28.00N",3,39,0,"E",3.65,"  3.39.00E",1380,NA
"394",2186,1696,"LAUBIES2","Laubies II","Y","N","Y","PBOG","N","close to Laubies village",NA,88,"0000-00-00",NA,NA,NA,NA,NA,NA,1696,"Les Laubies","FRA-59000-LAUB",NA,"FRA","59","000",44,28,0,"N",44.466667,"44.28.00N",3,39,0,"E",3.65,"  3.39.00E",1380,NA
"395",2228,1728,"VACCAJA1","Vaccaja 1","Y","N","N","PMIR","N","north of Acqua Ciarnente col","Meadow",355,"1971-00-00",NA,NA,"Hiller sampler",NA,NA,NA,1728,"Pozzine des bergeries de Vaccaja","FRA-20000-VACC","Y2000","FRA","20","000",42,13,21,"N",42.2225,"42.13.21N",8,58,46,"E",8.979444,"  8.58.46E",1570,0.5
"396",2229,1728,"VACCAJA2","Vaccaja 2","Y","N","N","PMIR","N","30m from Vaccaja1","Plain",355,"1971-00-00",NA,NA,"Coûteaux sampler",NA,NA,NA,1728,"Pozzine des bergeries de Vaccaja","FRA-20000-VACC","Y2000","FRA","20","000",42,13,21,"N",42.2225,"42.13.21N",8,58,46,"E",8.979444,"  8.58.46E",1570,0.5
"397",2246,1740,"LAGMESAG","Laguna Mesagosa core","Y","N","Y","PMIR","N","centre of basin",NA,1491,"1994-06-01",NA,NA,"Eijelkamp & Livingstone corers",NA,NA,NA,1740,"Laguna Mesagosa","ESP-14000-LAGM",NA,"ESP","14","000",41,57,55,"N",41.965278,"41.57.55N",2,48,44,"W",-2.812222,"  2.48.44W",1600,0.5
"398",2247,1741,"LAGNEGRA","Lagune Negra core","Y","N","Y","LACU","N","centre of lake",NA,77,"1991-00-00",700,NA,"Livingstone corer",NA,NA,NA,1741,"Laguna Negra","ESP-14000-LAGN",NA,"ESP","14","000",42,0,1,"N",42.000278,"42.00.01N",2,50,54,"W",-2.848333,"  2.50.54W",1760,3.6
"399",2258,1752,"CALDANE","Caldane","Y","N","N","PMSH","N","San Pedrone north east of Corsica island","Sphagnum",355,"1969-07-00",NA,NA,NA,NA,NA,NA,1752,"Prato di Caldane","FRA-37000-CALD","Y2000","FRA","37","000",42,20,11,"N",42.336389,"42.20.11N",9,20,47,"E",9.346389,"  9.20.47E",1720,NA
"400",2259,1753,"CAVALL2","Cavallara 2","Y","N","N","PMSH","N","Incudine center of the island","Beech grove",355,"1970-00-00",NA,NA,"Coûteaux corer",8,NA,NA,1753,"Bergeries de Cavallara","FRA-20000-CAVA","Y2000","FRA","20","000",41,52,32,"N",41.875556,"41.52.32N",9,10,31,"E",9.175278,"  9.10.31E",1450,NA
"401",2260,1753,"CAVALLAR","Cavallara","Y","N","N","PMSH","N","S-E of Corsica island","beech grove",355,"1969-07-00",NA,NA,"Hiller corer",NA,NA,NA,1753,"Bergeries de Cavallara","FRA-20000-CAVA","Y2000","FRA","20","000",41,52,32,"N",41.875556,"41.52.32N",9,10,31,"E",9.175278,"  9.10.31E",1450,NA
"402",2261,664,"CRENO2","Creno 2","Y","N","N","PBOG","N","border north of the lake","hygrophilous herb and Sphagnum",355,"1969-00-00",120,NA,"Coûteaux corer",8,NA,NA,664,"Lac de Creno","FRA-20000-CREN",NA,"FRA","20","000",42,12,3,"N",42.200833,"42.12.03N",8,56,51,"E",8.9475,"  8.56.51E",1280,2.4
"403",2262,1754,"OVACE","Ovace","Y","N","Y","PBOG","N","centre of the peat bog","meso-hygrophile lawn",355,"1969-07-00",NA,NA,"Hiller corer",NA,NA,NA,1754,"Plateau d'Ovace","FRA-20000-OVAC",NA,"FRA","20","000",41,35,5,"N",41.584722,"41.35.05N",9,5,22,"E",9.089444,"  9.05.22E",1250,NA
"404",2263,1755,"FOSES4","Fos core ES4","Y","N","N","PBOG","N","500m from the sea","Phragmites",88,"1995-00-00",NA,NA,NA,NA,NA,NA,1755,"Marais de Fos","FRA-13000-FOSE",NA,"FRA","13","000",43,26,12,"N",43.436667,"43.26.12N",4,56,12,"E",4.936667,"  4.56.12E",0,NA
"405",2266,1758,"MALIQS1","S1 core (K6)","Y","N","N","LACU","N","edge of the lake","cultivated fields",1544,"1996-00-00",NA,NA,"Russian sampler",NA,NA,"close to archaeological Sovjan site",1758,"Lake Maliq","ALB-07000-MALI",NA,"ALB","07","000",40,46,0,"N",40.766667,"40.46.00N",20,47,0,"E",20.783333," 20.47.00E",818,4000
"406",2314,1796,"DS7","DS7-1CS","Y","N","N","MARI","Y","North-East of the Dead Sea",NA,59,"0000-00-00",41500,NA,"SELCORE percussion",12,NA,NA,1796,"Dead Sea 7","DES-00000-DS7",NA,"DES","00","000",31,29,28,"N",31.491111,"31.29.28N",35,25,47,"E",35.429722," 35.25.47E",-415,NA
"407",2318,1800,"ML9811","core ML98-11","Y","N","N","LACU","N","centre of lake","Euxinian forest",59,"1998-00-00",2900,NA,"handpushed Livingstore",5,NA,NA,1800,"Lake Manyas","TUR-12000-ML98",NA,"TUR","12","000",40,10,0,"N",40.166667,"40.10.00N",28,0,0,"E",28," 28.00.00E",14,15000
"408",2323,1804,"IZNIK","IZN05/LC1, IZN09/LC2 & LC3","Y","N","N","LACU","N","sedimentary ridges",NA,1630,"2009-00-00",50,NA,"percussion piston (UWITEC)",NA,NA,"3 composite cores",1804,"Lake Iznik","TUR-21000-IZNI",NA,"TUR","21","000",40,26,2,"N",40.433889,"40.26.02N",29,31,59,"E",29.533056," 29.31.59E",88,31300
"409",2324,1805,"MAI",NA,"Y","N","N","PMIR","N","bottom of del Maíllo river","Erica,Calluna,Genista,Molina,Pteridium",1617,"2009-03-00",NA,NA,"Russian corer",5,NA,NA,1805,"El Maíllo mire","ESP-08000-MAI",NA,"ESP","08","000",40,32,48,"N",40.546667,"40.32.48N",6,12,35,"W",-6.209722,"  6.12.35W",1100,0.18
"410",2326,1806,"AYOO",NA,"Y","N","N","PMIR","N","south-west of Vidriales village","Molinia,Nardus,Carex,Genista,Calluna,Eri",1617,"2009-03-00",NA,NA,"Russian corer",5,NA,NA,1806,"Ayoó de Vidriales","ESP-08000-AYOO",NA,"ESP","08","000",42,7,34,"N",42.126111,"42.07.34N",6,4,13,"W",-6.070278,"  6.04.13W",780,NA
"411",2357,1836,"TSCHEPPA","Lej da la Tscheppa","Y","N","Y","LNAT","N","in the lake","open water",1692,"2002-08-00",2500,NA,"UWITEC gravity corer",NA,0,"from Alpadaba",1836,"Lej da la Tscheppa","CHE-10000-TSCH",NA,"CHE","10","000",46,27,7,"N",46.451944,"46.27.07N",9,45,0,"E",9.75,"  9.45.00E",2616,7.96
"412",2358,1837,"108MAY90","station 108","Y","N","Y","MARI","N","in front of Po delta",NA,1694,"1990-00-00",3200,NA,"PVC tube; scuba divers",NA,NA,"from Alpadaba",1837,"Adriatic Sea 108MAY90","ADS-00000-108M",NA,"ADS","00","000",44,45,7,"N",44.751944,"44.45.07N",12,45,0,"E",12.75," 12.45.00E",-32,NA
"413",2364,1843,"NISIB","Nisi Fen B","Y","N","N","PFEN","N","SW of Nisi village, 500m W of Fen E","fen",1706,"0000-00-00",NA,NA,"modified Livingstone piston",NA,NA,"from Alpadaba",1843,"Nisi Fen","GRC-40000-NISI",NA,"GRC","40","000",40,49,0,"N",40.816667,"40.49.00N",21,55,0,"E",21.916667," 21.55.00E",475,1200
"414",2365,1843,"NISIE","Nisi Fen E","Y","N","N","PFEN","N","SW of Nisi village, 500m east of Fen B","fen",1706,"0000-00-00",NA,NA,"modified Livingstone piston",NA,NA,"from Alpadaba",1843,"Nisi Fen","GRC-40000-NISI",NA,"GRC","40","000",40,49,0,"N",40.816667,"40.49.00N",21,55,0,"E",21.916667," 21.55.00E",475,1200
"415",2366,1844,"GORGOBAS",NA,"Y","N","N","LACU","N","deepest point","wetland communities",718,"2004-06-00",970,NA,"modified Streif-Livingstone",4.8,0,"Alpadaba",1844,"Gorgo basso","ITA-15000-GORG",NA,"ITA","15","000",37,36,0,"N",37.6,"37.36.00N",12,39,0,"E",12.65," 12.39.00E",6,3
"416",2367,1845,"LPBC","cores LPB and LPC","Y","N","N","LACU","N","centre of lake","wetland communities",1715,"2008-06-00",200,NA,"Streif-Livingstone corer",4.8,NA,"Alpadaba",1845,"Lago Preola","ITA-15000-LPBC",NA,"ITA","15","000",37,37,0,"N",37.616667,"37.37.00N",12,38,0,"E",12.633333," 12.38.00E",6,33
"417",2398,1868,"BN1","Drillhole BN1","Y","N","N","PALU","N",NA,"shrubs",59,"1987-00-00",NA,NA,"drillhole",NA,NA,"latest Pliocene",1868,"Bernasso","FRA-46000-BN1",NA,"FRA","46","000",43,43,34,"N",43.726111,"43.43.34N",3,15,25,"E",3.256944,"  3.15.25E",512,NA
"418",2399,796,"BO3","BO III","Y","N","N","LACU","N",NA,"Quercus,Quercetum, Pistacia lentiscus",59,"1988-00-00",NA,NA,"Sedidrill 500",10,NA,NA,796,"Lake Banyoles","ESP-09000-BO4",NA,"ESP","09","000",42,8,0,"N",42.133333,"42.08.00N",2,45,0,"E",2.75,"  2.45.00E",173,NA
"419",2400,1869,"BOC3","BOC III","Y","N","N","PALU","N","500m north of Banyoles lake",NA,59,"0000-00-00",NA,NA,NA,NA,NA,"Praetiglian age deposit",1869,"Bòbila Ordis","ESP-09000-BOCN",NA,"ESP","09","000",42,8,24,"N",42.14,"42.08.24N",2,45,16,"E",2.754444,"  2.45.16E",190,NA
"420",2401,1869,"BOC4","BOC IV","Y","N","N","PALU","N","500m north of Banyoles lake",NA,59,"0000-00-00",NA,NA,NA,NA,NA,"Praetiglian age deposit",1869,"Bòbila Ordis","ESP-09000-BOCN",NA,"ESP","09","000",42,8,24,"N",42.14,"42.08.24N",2,45,16,"E",2.754444,"  2.45.16E",190,NA
"421",2402,1869,"BOCNOIR","BOC noir","Y","N","N","PALU","N","500m north of Banyoles lake",NA,59,"0000-00-00",NA,NA,NA,NA,NA,"Praetiglian age deposit",1869,"Bòbila Ordis","ESP-09000-BOCN",NA,"ESP","09","000",42,8,24,"N",42.14,"42.08.24N",2,45,16,"E",2.754444,"  2.45.16E",190,NA
"422",2406,1873,"AFALOU","Afalou","N","N","N","TCAV","N",NA,NA,1750,"1989-00-00",NA,NA,"excavation",NA,NA,"Palaeolithic site",1873,"Afalou Bou Rhummel","DZA-08000-AFAL",NA,"DZA","08","000",36,38,2,"N",36.633889,"36.38.02N",5,20,57,"E",5.349167,"  5.20.57E",40,NA
"423",2470,1913,"CARCAVAS","Arroyo de las Cárcavas","Y","N","N","PBOG","N",NA,NA,1617,"2014-00-00",NA,NA,"Russian peat sampler",NA,NA,NA,1913,"Arroyo de las Cárcavas","ESP-08000-CARC",NA,"ESP","08","000",40,50,31,"N",40.841944,"40.50.31N",4,1,53,"W",-4.031389,"  4.01.53W",1300,0.09
"424",2476,796,"BO4","BO IV","Y","N","N","LACU","N",NA,"Quercus,Quercetum, Pistacia lentiscus",59,"1988-00-00",NA,NA,"Sedidrill 500",10,NA,NA,796,"Lake Banyoles","ESP-09000-BO4",NA,"ESP","09","000",42,8,0,"N",42.133333,"42.08.00N",2,45,0,"E",2.75,"  2.45.00E",173,NA
"425",2477,1916,"TP2","TP II","Y","N","N","PALU","N","3km north-west of Banyoles",NA,59,"1985-00-00",NA,NA,"drill rig with gouge auger",NA,NA,NA,1916,"Tres Pins","ESP-09000-TP2",NA,"ESP","09","000",42,8,45,"N",42.145833,"42.08.45N",2,43,50,"E",2.730556,"  2.43.50E",210,NA
"426",2478,1917,"NO2","NO II","Y","N","N","PALU","Y","500m north-east of Nogaret village",NA,59,"0000-00-00",NA,NA,NA,NA,NA,NA,1917,"Nogaret maar","FRA-46000-NO2",NA,"FRA","46","000",43,47,15,"N",43.7875,"43.47.15N",3,12,30,"E",3.208333,"  3.12.30E",666,NA
"427",2479,1918,"NAVALACA","Arroyo de Navalacarreta","Y","N","N","PBOG","N",NA,NA,1617,"2014-00-00",NA,NA,"Russian peat sampler",NA,NA,NA,1918,"Arroyo de Navalacarreta","ESP-08000-NAVA",NA,"ESP","08","000",40,51,8,"N",40.852222,"40.51.08N",4,1,52,"W",-4.031111,"  4.01.52W",1250,0.025
"428",2480,1919,"VALDECON","Arroyo de Valdeconejos","Y","N","N","PMIR","N",NA,NA,1617,"2014-00-00",NA,NA,"Russian peat sampler",NA,NA,NA,1919,"Arroyo de Valdeconejos","ESP-08000-VALD",NA,"ESP","08","000",40,51,44,"N",40.862222,"40.51.44N",4,3,35,"W",-4.059722,"  4.03.35W",1380,0.04
"429",2481,1920,"ALICE2","Torbiera di Alice superiore II","Y","N","N","PBOG","N","middle of bog, east west of the village","sedge & willow plums Alnus in marsh part",636,"1973-00-00",NA,NA,"Hiller corer",NA,NA,NA,1920,"Torbiera di Alice","ITA-12000-ALIC",NA,"ITA","12","000",45,27,33,"N",45.459167,"45.27.33N",7,46,25,"E",7.773611,"  7.46.25E",573,20
"430",2482,1056,"LGA1","Lago Grande d'Avigliana I","Y","N","N","PBOG","N","eastern edge of the moor close to a moat","reed Carex Cladium Lysimachia Salix/Fran",636,"1975-00-00",NA,NA,"Hiller & Livingstone corers",NA,NA,"peat dismantled in the last century",1056,"Lago Grande di Avigliana","ITA-12000-LGA1","Y2002","ITA","12","000",45,3,54,"N",45.065,"45.03.54N",7,23,12,"E",7.386667,"  7.23.12E",353,83
"431",2483,1921,"ALICE","LA","Y","N","N","LACU","N","west side of the brook","reeds and carices",636,"1976-00-00",NA,NA,"Livingstone corer",NA,NA,NA,1921,"Lago di Alice","ITA-12000-LAAL",NA,"ITA","12","000",45,27,44,"N",45.462222,"45.27.44N",7,47,44,"E",7.795556,"  7.47.44E",594,NA
"432",2484,1920,"ALICE1","Torbiera di Alice superiore I","Y","N","N","PBOG","N","middle of bog, east west of the village","sedge & willow plums Alnus in marsh part",636,"1973-00-00",NA,NA,"Hiller corer",NA,NA,NA,1920,"Torbiera di Alice","ITA-12000-ALIC",NA,"ITA","12","000",45,27,33,"N",45.459167,"45.27.33N",7,46,25,"E",7.773611,"  7.46.25E",573,20
"433",2485,1920,"ALICE3","Torbiera di Alice sup. III","Y","N","N","PBOG","N","middle of bog, east west of the village","sedge & willow plums Alnus in marsh part",636,"1973-00-00",NA,NA,"Livingstone corer",NA,NA,NA,1920,"Torbiera di Alice","ITA-12000-ALIC",NA,"ITA","12","000",45,27,33,"N",45.459167,"45.27.33N",7,46,25,"E",7.773611,"  7.46.25E",573,20
"434",2486,1922,"BIANDRON","Lago Biandronno I","Y","N","N","LACU","N","east bank 80m from the shore",NA,636,"1976-00-00",NA,NA,"Livingstone corer",NA,NA,NA,1922,"Lago di Biandronno","ITA-09000-BIAN",NA,"ITA","09","000",45,48,51,"N",45.814167,"45.48.51N",8,44,22,"E",8.739444,"  8.44.22E",240,NA
"435",2487,1923,"LPA1","Torbiera di Trana","Y","N","N","PBOG","N","400m west of road, 100m south of moraine","alder trees",636,"1975-00-00",NA,NA,"Livingstone corer",NA,NA,"archaeological objects of Bronze Age in peaty layers",1923,"Torbiera di Trana","ITA-12000-LPA1",NA,"ITA","12","000",45,2,53,"N",45.048056,"45.02.53N",7,23,37,"E",7.393611,"  7.23.37E",360,NA
"436",2488,1924,"VIVERONE","Lago di Viverone","Y","N","N","LACU","N","south west of the lake","Rynchospora & Alnus unit belt with Carex",636,"1973-00-00",NA,NA,"Hiller corer",NA,NA,NA,1924,"Lago di Viverone","ITA-12000-VIVE",NA,"ITA","12","000",45,25,2,"N",45.417222,"45.25.02N",8,2,8,"E",8.035556,"  8.02.08E",230,NA
"437",2489,1925,"GEDI97","GEDI97","Y","N","N","MCOA","Y","Dead Sea shore near Ein Gedi Spa",NA,293,"1997-00-00",NA,NA,"marine drilling",NA,NA,NA,1925,"Ein Gedi","ISR-05000-GEDI",NA,"ISR","05","000",31,25,8,"N",31.418889,"31.25.08N",35,23,18,"E",35.388333," 35.23.18E",-415,76000
"438",2490,1926,"SIRIO","Lago di Sirio","Y","N","N","LACU","N","south eastern edge of the lake","Caricetum and alder forest",636,"1972-00-00",15,NA,"Hiller corer",NA,NA,NA,1926,"Lago di Sirio","ITA-12000-SIRI",NA,"ITA","12","000",45,29,9,"N",45.485833,"45.29.09N",7,53,2,"E",7.883889,"  7.53.02E",269,NA
"439",2492,1927,"GRAMOU","Gramousti","Y","N","N","LACU","N","east of Doliana","chews,Paliurus,Quercus,Cornus,Crataegus",1776,"0000-00-00",0,NA,"modified Livingstone corer",NA,NA,"drained lake",1927,"Lake Gramousti","GRC-22000-GRAM",NA,"GRC","22","000",39,53,6,"N",39.885,"39.53.06N",20,35,43,"E",20.595278," 20.35.43E",400,2.5
"440",2493,1928,"REZINA","Rezina","Y","N","N","PMSH","N","north of Astraka","Carex,Ranunculus,Potamogeton",1776,"0000-00-00",150,NA,"Livingstone corer piston",NA,NA,NA,1928,"Rezina marsh","GRC-22000-REZI",NA,"GRC","22","000",39,59,16,"N",39.987778,"39.59.16N",20,46,32,"E",20.775556," 20.46.32E",1760,3.12
"441",2515,1944,"SCHWI1SA","Schwindebeck I_SA","Y","N","N","PALU","N",NA,"none (mine)",72,"1958-08-26",NA,NA,"diatomite pit",NA,NA,"Eem interglacial",1944,"Schwindebeck","DEU-09000-SCHW",NA,"DEU","09","000",43,7,15,"N",43.120833,"43.07.15N",10,6,43,"E",10.111944," 10.06.43E",53,4
"442",2516,1944,"SCHWI2SB","Schwindebeck II_SB","Y","N","N","PALU","N",NA,"none (mine)",72,"1958-08-26",NA,NA,"diatomite pit",NA,NA,"Eem interglacial",1944,"Schwindebeck","DEU-09000-SCHW",NA,"DEU","09","000",43,7,15,"N",43.120833,"43.07.15N",10,6,43,"E",10.111944," 10.06.43E",53,4
"443",2517,1944,"SCHWIND6","Schwindebeck VI","Y","N","N","PALU","N",NA,"none (mine)",72,"1958-08-26",NA,NA,"diatomite pit",NA,NA,"Eem interglacial",1944,"Schwindebeck","DEU-09000-SCHW",NA,"DEU","09","000",43,7,15,"N",43.120833,"43.07.15N",10,6,43,"E",10.111944," 10.06.43E",53,4
"444",2518,1944,"SCHWIND7","Schwindebeck VII","Y","N","N","PALU","N",NA,"none (mine)",72,"1958-08-26",NA,NA,"diatomite pit",NA,NA,"Eem interglacial",1944,"Schwindebeck","DEU-09000-SCHW",NA,"DEU","09","000",43,7,15,"N",43.120833,"43.07.15N",10,6,43,"E",10.111944," 10.06.43E",53,4
"445",2554,1979,"TUB","Tubilla","Y","N","N","PMIR","N","deepest and undisturbed part of the site","meadows and reedbeds",1617,"2007-10-00",NA,NA,"Russian corer",NA,NA,"the mire was partly excavated in 2007 to create an artificial lake",1979,"Tubilla del Lago","ESP-14000-TUB",NA,"ESP","14","000",41,48,30,"N",41.808333,"41.48.30N",3,34,21,"W",-3.5725,"  3.34.21W",900,5
